Field name,Reservoir unit,Country,Region,Basin name,Tectonic regime,Latitude,Longitude,Operator company,Onshore/offshore,Hydrocarbon type,Reservoir status,Structural setting,Depth,Period,Lithology,Gross,Netpay,Porosity,Permeability,Oil density,Oil recovery factor,Condensate recovery factor,Gas recovery factor
ABQAIQ,ARAB D,SAUDI ARABIA,MIDDLE EAST,THE GULF,COMPRESSION,26.08,49.81,SAUDI ARAMCO,ONSHORE,OIL,REJUVENATING,FORELAND,1815.0,JURASSIC,LIMESTONE,75.0,55.2,21.0,410.0,839.7626112759643,,,
ABU GHARADIG,BAHARIYA,EGYPT,AFRICA,ABU GHARADIG,EXTENSION,29.7422,28.4925,GUPCO,ONSHORE,GAS-CONDENSATE,MATURE PRODUCTION,RIFT,3084.6,CRETACEOUS,SANDSTONE,223.5,43.2,10.0,8.0,,,,0.84
ABU MADI-EL QARA,ABU MADI (LEVEL II),EGYPT,AFRICA,NILE DELTA,STRIKE-SLIP,31.4382,31.3616,IEOC,ONSHORE,GAS,DECLINING PRODUCTION,WRENCH,2952.9,NEOGENE,THINLY-BEDDED SANDSTONE,34.5,19.8,22.0,200.0,,,,0.75
ABU MADI-EL QARA,ABU MADI (LEVEL III),EGYPT,AFRICA,NILE DELTA,STRIKE-SLIP,31.4382,31.3616,IEOC,ONSHORE,GAS,DECLINING PRODUCTION,WRENCH,3149.7,NEOGENE,SANDSTONE,152.7,123.0,20.0,300.0,779.6143250688706,,,0.78
AL HUWAISAH,SHUAIBA,OMAN,MIDDLE EAST,FAHUD SALT,COMPRESSION,21.9607,56.0452,PDO,ONSHORE,OIL,REJUVENATING,SALT,1486.5,CRETACEOUS,LIMESTONE,75.0,30.0,21.0,60.0,825.072886297376,0.26,,
ALABAMA FERRY,UPPER GLEN ROSE D ZONE,USA,NORTH AMERICA,GULF OF MEXICO NORTHERN ONSHORE,GRAVITY,31.2143,-95.7981,NUMEROUS,ONSHORE,OIL,MATURE PRODUCTION,PASSIVE MARGIN,2610.0,CRETACEOUS,LIMESTONE,28.5,4.5,12.0,20.0,801.6997167138811,0.34,,
ALBA,ALBA,UK,EUROPE,NORTH SEA CENTRAL,,58.0692,1.0784,CHEVRON,OFFSHORE,OIL,DECLINING PRODUCTION,RIFT,1692.6,PALEOGENE,THINLY-BEDDED SANDSTONE,90.0,81.0,,3500.0,933.9933993399341,0.36,,
ALBION-SCIPIO,TRENTON-BLACK RIVER,USA,NORTH AMERICA,MICHIGAN,,41.9937,-84.6016,NUMEROUS,ONSHORE,OIL,NEARLY DEPLETED,INTRACRATONIC,1140.0,ORDOVICIAN,DOLOMITE,180.0,120.0,,10.0,815.5619596541786,0.48,,0.9
ALIBEKMOLA,KT I,KAZAKHSTAN,FORMER SOVIET UNION,CASPIAN NORTH,COMPRESSION,48.474,57.6667,KAZAKHOIL AKTOBE,ONSHORE,OIL,DEVELOPING,SUB-SALT,1800.0,CARBONIFEROUS,LIMESTONE,90.0,31.5,10.0,20.0,876.1609907120743,0.3,,
ALIBEKMOLA,KT II,KAZAKHSTAN,FORMER SOVIET UNION,CASPIAN NORTH,COMPRESSION,48.474,57.6667,KAZAKHOIL AKTOBE,ONSHORE,OIL,DEVELOPING,SUB-SALT,2874.0,CARBONIFEROUS,LIMESTONE,182.1,32.4,10.0,20.0,839.7626112759643,0.3,,
ALPINE,ALPINE,USA,NORTH AMERICA,NORTH SLOPE,COMPRESSION,70.3266,-150.892,CONOCOPHILLIPS,ONSHORE,OIL,PLATEAU PRODUCTION,FORELAND,1980.0,JURASSIC,SANDSTONE,15.0,14.7,20.0,15.0,825.072886297376,0.43,,
ALTAMONT-BLUEBELL,GREEN RIVER AND COLTON/WASATCH,USA,NORTH AMERICA,UINTA,COMPRESSION,40.3,-110.21,NUMEROUS,ONSHORE,OIL,MATURE PRODUCTION,FORELAND,4575.0,PALEOGENE,SANDSTONE,2400.0,172.5,5.0,0.1,825.072886297376,0.12,,
ALWYN NORTH,BRENT (BRENT EAST),UK,EUROPE,NORTH SEA NORTHERN,INVERSION,60.7833,1.7333,TOTAL,OFFSHORE,OIL,NEARLY DEPLETED,RIFT,2937.0,JURASSIC,SANDSTONE,265.8,103.2,17.0,500.0,829.9120234604105,0.64,,
ALWYN NORTH,STATFJORD,UK,EUROPE,NORTH SEA NORTHERN,EXTENSION,60.7833,1.7333,TOTAL,OFFSHORE,GAS-CONDENSATE,MATURE PRODUCTION,RIFT,3163.5,TRIASSIC-JURASSIC,SANDSTONE,260.7,153.6,13.5,330.0,792.7170868347339,,,0.54
ANASAZI,PARADOX (DESERT CREEK),USA,NORTH AMERICA,PARADOX,COMPRESSION,37.0789,-109.2333,RIM ENERGY,ONSHORE,OIL,DECLINING PRODUCTION,INTRACRATONIC,1672.5,CARBONIFEROUS,DOLOMITE,24.0,13.8,14.0,15.0,820.2898550724638,0.38,,
ANDREW,LISTA (ANDREW SANDSTONE),UK,EUROPE,NORTH SEA CENTRAL,INVERSION,58.0479,1.4208,BP,OFFSHORE,OIL,DECLINING PRODUCTION,SALT,2278.5,PALEOGENE,SANDSTONE,162.3,110.1,20.0,200.0,822.6744186046511,0.49,,0.81
ANETH,PARADOX (DESERT CREEK),USA,NORTH AMERICA,PARADOX,COMPRESSION,37.3038,-109.2469,CHEVRON /EXXONMOBIL,ONSHORE,OIL,NEARLY DEPLETED,INTRACRATONIC,1641.0,CARBONIFEROUS,DOLOMITE,30.0,15.0,10.0,15.0,820.2898550724638,0.39,,
ANGUS,ANGUS SAND,UK,EUROPE,NORTH SEA CENTRAL,EXTENSION,56.1648,3.0593,AMERADA HESS,OFFSHORE,OIL,DECLINING PRODUCTION,RIFT,3039.0,JURASSIC,SANDSTONE,30.0,18.0,18.0,3000.0,825.072886297376,,,
ANKLESHWAR,ANKLESHWAR (HAZAD-ARDOL),INDIA,FAR EAST,CAMBAY,STRIKE-SLIP,21.6,72.9167,ONGC,ONSHORE,OIL,MATURE PRODUCTION,WRENCH,885.0,PALEOGENE,SANDSTONE,201.0,0.0,21.0,250.0,815.5619596541786,0.53,,
ANSCHUTZ RANCH EAST,NUGGET,USA,NORTH AMERICA,WESTERN OVERTHRUST,COMPRESSION,41.0799,-111.0518,BP,ONSHORE,GAS-CONDENSATE,DECLINING PRODUCTION,SUB-THRUST,3711.0,JURASSIC,SANDSTONE,306.0,244.8,10.0,3.0,771.1171662125341,,0.6,
ANTRIM SHALE,ANTRIM SHALE (NORWOOD-LACHINE),USA,NORTH AMERICA,MICHIGAN,STRIKE-SLIP,44.95399999999999,-84.6603,NUMEROUS,ONSHORE,GAS,PLATEAU PRODUCTION,INTRACRATONIC,150.0,DEVONIAN,SHALE,30.0,24.0,4.0,10.0,,,,
ARDJUNA-B,CIBULAKAN,INDONESIA,FAR EAST,JAVA NORTHWEST,INVERSION,-5.895,107.6981,BP,OFFSHORE,OIL,MATURE PRODUCTION,BACKARC,693.0,NEOGENE,LOW-RESISTIVITY SANDSTONE,359.1,78.9,26.0,300.0,839.7626112759643,,,
ARLAN,KASHIRA-PODOL,RUSSIA,FORMER SOVIET UNION,VOLGA-URAL,,55.8569,54.3689,BASHNEFT,ONSHORE,OIL,DECLINING PRODUCTION,FORELAND,828.0,CARBONIFEROUS,DOLOMITIC LIMESTONE,42.3,7.8,,24.0,865.4434250764525,0.19,,
ARUN,ARUN LIMESTONE (PEUTU),INDONESIA,FAR EAST,SUMATRA NORTH,STRIKE-SLIP,5.0542,97.2583,EXXONMOBIL,ONSHORE,GAS-CONDENSATE,DECLINING PRODUCTION,BACKARC,2838.0,NEOGENE,LIMESTONE,231.0,150.0,16.0,13.5,754.6666666666666,,,0.88
ASAB,THAMAMA ZONE B-C,UAE,MIDDLE EAST,RUB AL KHALI,COMPRESSION,23.298,54.2216,ADCO,ONSHORE,OIL,DECLINING PRODUCTION,SALT,2355.0,CRETACEOUS,LIMESTONE,82.2,75.0,30.0,20.0,820.2898550724638,0.45,,
ASHTART,EL GARIA,TUNISIA,AFRICA,PELAGIAN,EXTENSION,34.29,11.3989,SEREPT,OFFSHORE,OIL,MATURE PRODUCTION,RIFT,2640.0,PALEOGENE,LIMESTONE,88.5,73.8,17.2,42.0,878.3364369956549,0.46,,
AUGER,S SAND,USA,NORTH AMERICA,GULF OF MEXICO NORTHERN OFFSHORE,,27.5458,-92.443,SHELL,OFFSHORE,OIL,DECLINING PRODUCTION,DELTA,4752.0,NEOGENE,THINLY-BEDDED SANDSTONE,60.0,51.0,,150.0,844.776119402985,0.55,,
AUK,ROTLIEGEND (AUK),UK,EUROPE,NORTH SEA CENTRAL,EXTENSION,56.4125,2.0286,SHELL,OFFSHORE,OIL,MATURE PRODUCTION,RIFT,2113.2,PERMIAN,SANDSTONE,294.0,252.0,19.0,5.0,834.8082595870206,,,
AUK,ZECHSTEIN (HALIBUT),UK,EUROPE,NORTH SEA CENTRAL,EXTENSION,56.4125,2.0286,SHELL,OFFSHORE,OIL,DEPLETED,RIFT,2113.2,PERMIAN,DOLOMITE,9.0,9.0,13.0,53.0,834.8082595870206,,,
AWALI,KHUFF,BAHRAIN,MIDDLE EAST,THE GULF,COMPRESSION,26.0333,50.5333,BAHRAIN NATIONAL OIL CO,ONSHORE,GAS,UNKNOWN,SALT,2682.9,PERMIAN,DOLOMITE,630.0,133.5,11.0,25.0,,,,0.72
AWALI,MAUDDUD,BAHRAIN,MIDDLE EAST,THE GULF,,26.0333,50.5333,BAHRAIN NATIONAL OIL CO,ONSHORE,OIL,DECLINING PRODUCTION,SALT,669.9,CRETACEOUS,LIMESTONE,33.0,33.0,,63.0,854.9848942598187,0.25,,
BAB,THAMAMA ZONE B,UAE,MIDDLE EAST,RUB AL KHALI,,23.875,53.5375,ADCO,ONSHORE,OIL,SECOND PLATEAU PRODUTION,SALT,2538.0,CRETACEOUS,LIMESTONE,43.2,38.1,,30.0,822.1963974433469,0.44,,
BADR EL DIN-1,BAHARIYA,EGYPT,AFRICA,ABU GHARADIG,EXTENSION,29.8589,28.5229,BAPETCO,ONSHORE,OIL,MATURE PRODUCTION,RIFT,3352.5,CRETACEOUS,LOW-RESISTIVITY SANDSTONE,34.5,13.8,12.0,15.0,827.485380116959,0.24,,
BADR EL DIN-2,ABU ROASH G,EGYPT,AFRICA,ABU GHARADIG,EXTENSION,29.8698,27.7164,BAPETCO,ONSHORE,GAS-CONDENSATE,DECLINING PRODUCTION,RIFT,2126.1,CRETACEOUS,SANDSTONE,142.8,28.5,21.5,55.0,766.9376693766937,,,0.67
BADR EL DIN-2,BAHARIYA,EGYPT,AFRICA,ABU GHARADIG,EXTENSION,29.8698,27.7164,BAPETCO,ONSHORE,GAS-CONDENSATE,DECLINING PRODUCTION,RIFT,2263.8,CRETACEOUS,SANDSTONE,108.3,44.4,20.0,225.0,766.9376693766937,,,0.79
BADR EL DIN-3,KHARITA,EGYPT,AFRICA,ABU GHARADIG,EXTENSION,29.841,27.915,BAPETCO,ONSHORE,GAS-CONDENSATE,DECLINING PRODUCTION,RIFT,3360.0,CRETACEOUS,SANDSTONE,413.4,133.8,14.0,340.0,850.8719182200841,0.25,,0.71
BADRI,BELAYIM,EGYPT,AFRICA,GULF OF SUEZ,EXTENSION,28.2349,33.4649,GUPCO,OFFSHORE,OIL,PLATEAU PRODUCTION,SUB-SALT,1507.5,NEOGENE,SANDSTONE,85.5,35.1,24.0,300.0,892.7444794952681,0.35,,
BADRI,KAREEM,EGYPT,AFRICA,GULF OF SUEZ,,28.2349,33.4649,GUPCO,OFFSHORE,OIL,THIRD PLATEAU PRODUCTION,SUB-SALT,1701.3,NEOGENE,SANDSTONE,300.0,87.0,,50.0,887.1473354231974,0.31,,0.8
BAHAR,PRODUCTIVE SERIES (PERERIVA-BALAKHANY),AZERBAIJAN,FORMER SOVIET UNION,CASPIAN SOUTH,,40.0822,50.0975,SOCAR,OFFSHORE,OIL,DECLINING PRODUCTION,INVERSION,4395.0,NEOGENE,SANDSTONE,300.0,147.0,,40.0,854.9848942598187,0.27,,
BAI HASSAN,MAIN LIMESTONE,IRAQ,MIDDLE EAST,ZAGROS,COMPRESSION,35.6378,44.0272,INOC,ONSHORE,OIL,REJUVENATING,FORELAND,735.0,PALEOGENE-NEOGENE,LIMESTONE,270.0,85.5,20.0,50.0,857.5757575757575,0.15,,
BAIKOUQUAN,BAIKOUQUAN,CHINA,FAR EAST,JUNGGAR (ZHUNGEER),COMPRESSION,45.9306,85.0333,PETROCHINA,ONSHORE,OIL,REJUVENATING,SUB-THRUST,2091.0,TRIASSIC,CONGLOMERATE,157.5,30.0,12.2,71.2,837.7738306690349,0.28,,
BAIRAM-ALI,SHATLYK,TURKMENISTAN,FORMER SOVIET UNION,AMU DARYA,,38.0,61.88,TURKMENGAS,ONSHORE,GAS,ABANDONED,FORELAND,2727.0,CRETACEOUS,SANDSTONE,69.0,59.1,,123.0,,,,
BALAM SOUTH,TELISA 600,INDONESIA,FAR EAST,SUMATRA CENTRAL,INVERSION,1.6669999999999998,100.733,CALTEX PACIFIC,ONSHORE,OIL,REJUVENATING,INVERSION,318.0,NEOGENE,LOW-RESISTIVITY SANDSTONE,36.0,21.0,32.0,68.0,876.1609907120743,0.12,,
BALDPATE,BIG SAND,USA,NORTH AMERICA,GULF OF MEXICO NORTHERN OFFSHORE,GRAVITY,27.69,-91.73,AMERADA HESS,OFFSHORE,GAS,PLATEAU PRODUCTION,SALT,4155.0,NEOGENE,SANDSTONE,35.4,30.0,27.0,836.0,832.3529411764705,0.55,,0.69
BALOL,KALOL,INDIA,FAR EAST,CAMBAY,INVERSION,23.498,72.188,ONGC,ONSHORE,OIL,REJUVENATING,RIFT,940.8,PALEOGENE,SANDSTONE,44.4,3.9,28.0,5000.0,962.5850340136055,,,
BARONIA,RR2/RS2,MALAYSIA,FAR EAST,SABAH,GRAVITY,4.705,113.694,PETRONAS,OFFSHORE,OIL,DECLINING PRODUCTION,DELTA,1984.5,NEOGENE,SANDSTONE,112.5,52.5,20.0,185.0,825.072886297376,0.31,,
BARQUE,LEMAN SANDSTONE,UK,EUROPE,NORTH SEA SOUTHERN,INVERSION,53.6204,1.5183,SHELL,OFFSHORE,GAS,DECLINING PRODUCTION,SUB-SALT,2070.0,PERMIAN,SANDSTONE,225.0,171.0,11.0,0.5,,,,0.45
BARRACOUTA,LATROBE (M1 UNIT),AUSTRALIA,FAR EAST,GIPPSLAND,INVERSION,-38.2786,147.7094,EXXONMOBIL /BHP BILLITON,OFFSHORE,OIL,TEMPORARILY SHUT-IN,INVERSION,1308.0,PALEOGENE,SANDSTONE,29.4,14.7,27.0,5000.0,727.5064267352185,0.33,,
BARRACOUTA,LATROBE (N1 UNIT),AUSTRALIA,FAR EAST,GIPPSLAND,INVERSION,-38.2786,147.7094,EXXONMOBIL /BHP BILLITON,OFFSHORE,GAS,DECLINING PRODUCTION,INVERSION,955.2,PALEOGENE,SANDSTONE,113.1,88.5,25.0,1000.0,,,,0.7
BEAVER LODGE,MISSION CANYON (MADISON),USA,NORTH AMERICA,WILLISTON,COMPRESSION,48.2713,-102.9547,AMERADA HESS,ONSHORE,OIL,REJUVENATING,INTRACRATONIC,2505.0,CARBONIFEROUS,LIMESTONE,36.0,6.0,6.0,1.0,810.888252148997,,,
BELAYIM MARINE,RUDEIS-KAREEM,EGYPT,AFRICA,GULF OF SUEZ,EXTENSION,28.603,33.1278,PETROBEL,OFFSHORE,OIL,DECLINING PRODUCTION,SUB-SALT,2127.0,NEOGENE,SANDSTONE,390.0,150.0,18.0,400.0,889.937106918239,0.46,,
BELL CREEK,MUDDY,USA,NORTH AMERICA,POWDER RIVER,COMPRESSION,45.1039,-105.0967,SAMUEL GARY,ONSHORE,OIL,NEARLY DEPLETED,FORELAND,1290.0,CRETACEOUS,SANDSTONE,13.5,6.9,28.5,2250.0,862.8048780487804,0.55,,
BERRI,HANIFA,SAUDI ARABIA,MIDDLE EAST,THE GULF,COMPRESSION,26.9833,49.6167,SAUDI ARAMCO,OFFSHORE,OIL,DECLINING PRODUCTION,FORELAND,2250.0,JURASSIC,LIMESTONE,81.0,57.0,17.0,50.0,829.9120234604105,,,
BERYL,BERYL,UK,EUROPE,NORTH SEA NORTHERN,EXTENSION,59.5498,1.5318,EXXONMOBIL,OFFSHORE,OIL,DECLINING PRODUCTION,RIFT,2760.0,JURASSIC,SANDSTONE,150.0,127.5,17.0,350.0,839.7626112759643,0.47,,
BERYL,LINNHE,UK,EUROPE,NORTH SEA NORTHERN,EXTENSION,59.5498,1.5318,EXXONMOBIL,OFFSHORE,OIL,UNKNOWN,RIFT,2880.0,JURASSIC,SANDSTONE,90.0,36.0,14.0,100.0,834.8082595870206,,,
BERYL,NANSEN,UK,EUROPE,NORTH SEA NORTHERN,EXTENSION,59.5498,1.5318,EXXONMOBIL,OFFSHORE,OIL,UNKNOWN,RIFT,2987.7,JURASSIC,SANDSTONE,54.0,43.2,18.0,200.0,839.7626112759643,,,
BIBI HAKIMEH,ASMARI,IRAN,MIDDLE EAST,ZAGROS,COMPRESSION,30.0572,50.6384,NIOC,ONSHORE,OIL,MATURE PRODUCTION,FORELAND,945.0,PALEOGENE-NEOGENE,DOLOMITIC LIMESTONE,480.0,201.6,9.0,1.0,876.7038413878562,0.3,,0.8
BIG SANDY,OHIO SHALE,USA,NORTH AMERICA,APPALACHIAN,,37.7682,-82.4974,NUMEROUS,ONSHORE,GAS,DECLINING PRODUCTION,FORELAND,660.0,DEVONIAN,SHALE,180.0,30.0,,0.0,,,,
BILLINGS NOSE,MISSION CANYON (BIG STICK FIELD),USA,NORTH AMERICA,WILLISTON,EXTENSION,47.1,-103.32,NUMEROUS,ONSHORE,OIL,MATURE PRODUCTION,INTRACRATONIC,2835.0,CARBONIFEROUS,DOLOMITE,30.0,5.4,17.0,20.0,825.072886297376,0.175,,
BINDLEY,WARSAW,USA,NORTH AMERICA,ANADARKO,COMPRESSION,38.1838,-99.9569,CONOCOPHILLIPS AND OTHERS,ONSHORE,OIL,NEARLY DEPLETED,FORELAND,1374.0,CARBONIFEROUS,DOLOMITE,15.0,3.6,15.0,35.0,834.8082595870206,,,
BLACK LAKE,SLIGO (PETTET),USA,NORTH AMERICA,GULF OF MEXICO NORTHERN ONSHORE,GRAVITY,31.9486,-92.932,PLACID OIL,ONSHORE,GAS-CONDENSATE,MATURE PRODUCTION,PASSIVE MARGIN,2337.0,CRETACEOUS,LIMESTONE,45.0,21.8,15.0,133.0,797.1830985915493,,,
BOB WEST,WILCOX (LOPENO SANDS),USA,NORTH AMERICA,GULF OF MEXICO NORTHERN ONSHORE,GRAVITY,26.57,-99.15,SANCHEZ - O BRIEN /COASTAL,ONSHORE,GAS,DECLINING PRODUCTION,DELTA,2962.5,PALEOGENE,SANDSTONE,900.0,195.0,16.0,0.6,,,,
BONGKOT,MALAY II,THAILAND,FAR EAST,MALAY,STRIKE-SLIP,8.0876,102.2849,PTTEP,OFFSHORE,GAS-CONDENSATE,PLATEAU PRODUCTION,WRENCH,906.0,NEOGENE,SANDSTONE,1020.0,36.0,22.0,160.0,779.6143250688706,,,
BOONSVILLE,BEND CONGLOMERATE,USA,NORTH AMERICA,FORT WORTH,INVERSION,33.1875,-97.9167,NUMEROUS,ONSHORE,GAS,MATURE PRODUCTION,FORELAND,1350.0,CARBONIFEROUS,CONGLOMERATE,330.0,21.9,10.0,3.0,,,,
BRADFORD,CLEVELAND,USA,NORTH AMERICA,ANADARKO,COMPRESSION,36.27244,-100.33188,NUMEROUS,ONSHORE,GAS,REJUVENATING,FORELAND,2197.5,CARBONIFEROUS,SHALY SANDSTONE,105.0,10.2,12.0,0.1,797.1830985915493,,,
BRAGE,FENSFJORD,NORWAY,EUROPE,NORTH SEA NORTHERN,EXTENSION,60.5868,3.0943,STATOILHYDRO,OFFSHORE,OIL,DECLINING PRODUCTION,RIFT,1904.4,JURASSIC,SANDSTONE,36.9,24.6,27.0,80.0,839.7626112759643,0.32,,
BRAGE,STATFJORD,NORWAY,EUROPE,NORTH SEA NORTHERN,EXTENSION,60.5868,3.0943,STATOILHYDRO,OFFSHORE,OIL,DECLINING PRODUCTION,RIFT,2128.8,TRIASSIC-JURASSIC,SANDSTONE,93.6,24.6,24.0,1500.0,839.7626112759643,0.64,,
BRANTON,COTTON VALLEY LIME,USA,NORTH AMERICA,GULF OF MEXICO NORTHERN ONSHORE,GRAVITY,31.3593,-96.2189,MARATHON,ONSHORE,GAS,NEARLY DEPLETED,SALT,4443.0,JURASSIC,CHALKY LIMESTONE,112.5,60.0,25.0,5.0,,,,
BRAVO DOME,TUBB,USA,NORTH AMERICA,SIERRA GRANDE UPLIFT,COMPRESSION,36.0049,-103.8177,BP,ONSHORE,CARBON DIOXIDE,PLATEAU PRODUCTION,FORELAND,588.0,PERMIAN,SANDSTONE,75.0,36.0,20.0,42.0,,,,0.8
BREAM,LATROBE (N1 UNIT),AUSTRALIA,FAR EAST,GIPPSLAND,,-38.5221,147.7981,EXXONMOBIL /BHP BILLITON,OFFSHORE,OIL,DECLINING PRODUCTION,INVERSION,1728.0,PALEOGENE,SANDSTONE,29.4,15.6,,2900.0,801.6997167138811,,,0.77
BRIDGER LAKE,DAKOTA SANDSTONE (LOWER MEMBER),USA,NORTH AMERICA,GREATER GREEN RIVER,COMPRESSION,40.9639,-110.3091,BTA OIL PRODUCERS,ONSHORE,OIL,NEARLY DEPLETED,FORELAND,4638.0,CRETACEOUS,SANDSTONE,81.0,10.5,12.8,79.0,823.6321303841676,0.21,,
BRITANNIA,BRITANNIA SANDSTONE,UK,EUROPE,NORTH SEA CENTRAL,EXTENSION,58.0824,0.8413,BRITTANIA OPERATOR LIMITED,OFFSHORE,GAS-CONDENSATE,DECLINING PRODUCTION,RIFT,3405.0,CRETACEOUS,SANDSTONE,82.5,36.0,15.0,40.0,792.7170868347339,,,0.65
BU ATTIFEL,SARIR,LIBYA,AFRICA,SIRT,,28.8453,22.1197,ENI,ONSHORE,OIL,DECLINING PRODUCTION,RIFT,3975.0,CRETACEOUS,SANDSTONE,240.0,147.0,,90.0,820.2898550724638,0.5,,
BU HASA,SHUAIBA,UAE,MIDDLE EAST,RUB AL KHALI,COMPRESSION,23.531,53.2953,ADCO,ONSHORE,OIL,SECOND PLATEAU PRODUTION,SALT,2295.0,CRETACEOUS,LIMESTONE,126.0,87.0,23.0,20.0,829.9120234604105,0.46,,
BUL HANINE,ARAB D,QATAR,MIDDLE EAST,RUB AL KHALI,GRAVITY,25.4333,52.7,QATAR PETROLEUM,OFFSHORE,OIL,DECLINING PRODUCTION,SALT,2181.0,JURASSIC,LIMESTONE,72.0,42.0,23.0,200.0,849.8498498498498,0.59,,
BUL HANINE,UWAINAT,QATAR,MIDDLE EAST,RUB AL KHALI,GRAVITY,25.4333,52.7,QATAR PETROLEUM,OFFSHORE,OIL,UNKNOWN,SALT,2530.5,JURASSIC,LIMESTONE,54.0,42.0,14.0,25.0,839.7626112759643,0.15,,
BUNYU,TARAKAN-SANTUL-TABUL-BUNYU,INDONESIA,FAR EAST,TARAKAN,INVERSION,3.4708,117.8625,PERTAMINA,ONSHORE,GAS,NEARLY DEPLETED,INVERSION,334.5,NEOGENE,THINLY-BEDDED SANDSTONE,2460.0,117.0,25.0,1000.0,865.4434250764525,0.29,,0.75
CABIN CREEK,INTERLAKE,USA,NORTH AMERICA,WILLISTON,,46.5782,-104.4303,SHELL,ONSHORE,OIL,NEARLY DEPLETED,INTRACRATONIC,2520.0,SILURIAN,DOLOMITE,120.0,21.0,,5.0,865.4434250764525,,,
CABIN CREEK,RED RIVER,USA,NORTH AMERICA,WILLISTON,COMPRESSION,46.5782,-104.4303,SHELL,ONSHORE,OIL,NEARLY DEPLETED,INTRACRATONIC,2625.0,ORDOVICIAN,DOLOMITE,150.0,12.0,13.0,8.0,860.1823708206687,0.49,,
CAHOJ,LANSING-KANSAS CITY,USA,NORTH AMERICA,ANADARKO,COMPRESSION,39.9739,-101.1508,NUMEROUS,ONSHORE,OIL,MATURE PRODUCTION,FORELAND,1209.0,CARBONIFEROUS,LIMESTONE,79.5,4.2,15.0,10.0,854.9848942598187,,,
CANDEIAS,GOMO (CANDEIAS),BRAZIL,LATIN AMERICA,RECONCAVO,EXTENSION,-12.6634,-38.5668,PETROBRAS,ONSHORE,OIL,MATURE PRODUCTION,RIFT,634.8,CRETACEOUS,CONGLOMERATE,442.8,54.0,15.0,30.0,876.1609907120743,0.27,,
CANO LIMON,LOWER CARBONERA,COLOMBIA,LATIN AMERICA,LLANOS,STRIKE-SLIP,6.943,-71.1397,OCCIDENTAL,ONSHORE,OIL,REJUVENATING,WRENCH,2085.0,PALEOGENE,SANDSTONE,70.5,37.8,24.0,1450.0,878.8819875776397,0.59,,
CARMOPOLIS,CARMOPOLIS (MURIBECA),BRAZIL,LATIN AMERICA,SERGIPE-ALAGOAS,EXTENSION,-10.6588,-36.9488,PETROBRAS,ONSHORE,OIL,DECLINING PRODUCTION,PASSIVE MARGIN,536.4,CRETACEOUS,CONGLOMERATE,114.0,105.0,15.0,60.0,921.8241042345277,0.24,,
CAROLINE,CARDIUM (E POOL),CANADA,NORTH AMERICA,WESTERN CANADA,COMPRESSION,51.9278,-114.5405,NUMEROUS,ONSHORE,OIL,NEARLY DEPLETED,FORELAND,2392.5,CRETACEOUS,SANDSTONE,90.0,2.1,11.0,20.0,815.5619596541786,0.24,,
CAROLINE,SWAN HILLS (BEAVERHILL LAKE A),CANADA,NORTH AMERICA,WESTERN CANADA,COMPRESSION,51.9278,-114.5405,NUMEROUS,ONSHORE,GAS-CONDENSATE,DECLINING PRODUCTION,FORELAND,3450.0,DEVONIAN,DOLOMITE,90.0,18.0,10.0,100.0,,,0.7,0.77
CAROLINE,VIKING,CANADA,NORTH AMERICA,WESTERN CANADA,COMPRESSION,51.9278,-114.5405,NUMEROUS,ONSHORE,OIL,NEARLY DEPLETED,FORELAND,2280.0,CRETACEOUS,SANDSTONE,47.4,4.5,9.5,10.0,829.9120234604105,0.12,,0.78
CARPINTERIA,PICO,USA,NORTH AMERICA,VENTURA,COMPRESSION,34.3408,-119.5309,PXP AND OTHERS,OFFSHORE,OIL,DECLINING PRODUCTION,THRUST,550.5,NEOGENE,SANDSTONE,600.0,105.0,28.0,550.0,904.1533546325878,0.25,,
CARROT CREEK,CARDIUM (CARROT CREEK),CANADA,NORTH AMERICA,WESTERN CANADA,,53.4814,-115.7487,BP AND OTHERS,ONSHORE,OIL,MATURE PRODUCTION,FORELAND,1560.0,CRETACEOUS,CONGLOMERATE,90.0,4.5,,15.0,854.9848942598187,0.185,,
CARTHAGE,COTTON VALLEY SANDSTONE,USA,NORTH AMERICA,GULF OF MEXICO NORTHERN ONSHORE,GRAVITY,32.1988,-94.2574,NUMEROUS,ONSHORE,GAS,PLATEAU PRODUCTION,PASSIVE MARGIN,2460.0,JURASSIC,SANDSTONE,450.0,45.0,7.0,0.0,779.6143250688706,,,
CARTHAGE,LOWER PETTET (SLIGO),USA,NORTH AMERICA,GULF OF MEXICO NORTHERN ONSHORE,GRAVITY,32.1988,-94.2574,NUMEROUS,ONSHORE,GAS,REJUVENATING,PASSIVE MARGIN,1755.6,CRETACEOUS,LIMESTONE,75.0,4.5,18.0,35.0,815.5619596541786,,,
CASHIRIARI,VIIVIAN,PERU,LATIN AMERICA,UCAYALI,COMPRESSION,-12.1667,-72.75,PLUSPETROL,ONSHORE,GAS-CONDENSATE,UNDEVELOPED,THRUST,1845.0,CRETACEOUS,SANDSTONE,73.5,63.0,13.0,1000.0,727.5064267352185,,,
CASPER CREEK SOUTH,TENSLEEP,USA,NORTH AMERICA,WIND RIVER,COMPRESSION,42.64,-106.84,CITATION OIL and GAS,ONSHORE,OIL,MATURE PRODUCTION,THRUST,690.0,CARBONIFEROUS,SANDSTONE,90.0,36.0,21.0,650.0,974.5179063360882,0.557,,
CAVE GULCH,LANCE-FORT UNION,USA,NORTH AMERICA,WIND RIVER,COMPRESSION,42.98,-106.87,WILLIAMS,ONSHORE,GAS,DECLINING PRODUCTION,SUB-THRUST,1440.0,CRETACEOUS-PALEOGENE,SANDSTONE,1380.0,165.0,17.0,3.0,,,,
CAZAUX,SERIE MARNEUSE,FRANCE,EUROPE,AQUITAINE,COMPRESSION,44.5407,-1.182,EXXONMOBIL,ONSHORE,OIL,NEARLY DEPLETED,FORELAND,2199.9,CRETACEOUS,SANDSTONE,60.0,19.8,18.0,200.0,852.9234478601567,0.28,,
CHAIVO-MORE,LOWER NUTOVO (XIV),RUSSIA,FORMER SOVIET UNION,NORTH SAKHALIN,STRIKE-SLIP,52.5467,143.4583,EXXONMOBIL,OFFSHORE,OIL,UNDEVELOPED,INVERSION,1836.6,NEOGENE,SANDSTONE,103.8,30.6,23.0,100.0,912.9032258064516,0.23,,
CHAIVO-MORE,LOWER NUTOVO (XVI),RUSSIA,FORMER SOVIET UNION,NORTH SAKHALIN,STRIKE-SLIP,52.5467,143.4583,EXXONMOBIL,OFFSHORE,GAS-CONDENSATE,UNDEVELOPED,INVERSION,2038.2,NEOGENE,SANDSTONE,87.0,44.4,23.0,100.0,834.8082595870206,,0.63,
CHALYBEAT SPRINGS,SMACKOVER,USA,NORTH AMERICA,GULF OF MEXICO NORTHERN ONSHORE,GRAVITY,33.0456,-93.0971,BP,ONSHORE,OIL,NEARLY DEPLETED,SALT,3012.0,JURASSIC,LIMESTONE,22.5,8.1,12.0,200.0,797.1830985915493,0.43,,
CHATEAURENARD,CHATEAURENARD,FRANCE,EUROPE,PARIS,EXTENSION,47.9903,2.9619,MADISON /CHART,ONSHORE,OIL,NEARLY DEPLETED,INTRACRATONIC,558.0,CRETACEOUS,SANDSTONE,8.4,4.5,27.0,1000.0,892.7444794952681,0.42,,
CHATEAURENARD,GRISELLES,FRANCE,EUROPE,PARIS,EXTENSION,47.9903,2.9619,MADISON /CHART,ONSHORE,OIL,NEARLY DEPLETED,INTRACRATONIC,592.5,CRETACEOUS,SANDSTONE,6.0,2.1,27.0,1000.0,892.7444794952681,0.42,,
CHAUNOY,CHAUNOY,FRANCE,EUROPE,PARIS,EXTENSION,48.5687,2.8034,ESSOREP,ONSHORE,OIL,NEARLY DEPLETED,INTRACRATONIC,2206.8,TRIASSIC,SANDSTONE,65.1,24.6,13.0,130.0,839.7626112759643,0.38,,
CHELEKEN,RED SERIES,TURKMENISTAN,FORMER SOVIET UNION,CASPIAN SOUTH,COMPRESSION,39.58,53.13,TURKMENNEFT,ONSHORE-OFFSHORE,OIL,MATURE PRODUCTION,THRUST,540.0,NEOGENE,SANDSTONE,2250.0,57.0,19.0,30.0,860.1823708206687,0.35,,
CHENGDAO,GUANTAO,CHINA,FAR EAST,BOHAI,EXTENSION,38.173,118.8465,SINOPEC,OFFSHORE,OIL,PLATEAU PRODUCTION,RIFT,1182.0,NEOGENE,SANDSTONE,283.5,70.8,33.8,2529.0,898.4126984126984,0.2,,
CHINGUETTI,CHINGUETTI,MAURITANIA,AFRICA,MAURITANIAN SALT,EVAPORITE,17.73,-17.59,WOODSIDE ENERGY,OFFSHORE,OIL,DEVELOPING,PASSIVE MARGIN,1170.0,NEOGENE,SANDSTONE,246.0,37.5,27.0,2000.0,865.4434250764525,,,
CINTA,TALANG AKAR (ZONE 3),INDONESIA,FAR EAST,SUNDA,INVERSION,-5.4397,106.2639,REPSOL YPF,OFFSHORE,OIL,MATURE PRODUCTION,INVERSION,864.0,PALEOGENE,SANDSTONE,60.0,19.5,18.0,505.0,860.1823708206687,0.44,,
CLIPPER,LEMAN SANDSTONE,UK,EUROPE,NORTH SEA SOUTHERN,INVERSION,53.4682,1.7338,SHELL,OFFSHORE,GAS,DECLINING PRODUCTION,SUB-SALT,2226.0,PERMIAN,SANDSTONE,214.5,174.0,11.0,0.5,,,,0.64
CLYDE,FULMAR,UK,EUROPE,NORTH SEA CENTRAL,GRAVITY,56.45,2.2833,TALISMAN,OFFSHORE,OIL,NEARLY DEPLETED,SALT,3536.1,JURASSIC,THINLY-BEDDED SANDSTONE,195.0,117.0,20.0,350.0,837.2781065088757,0.35,,
COALINGA,TEMBLOR,USA,NORTH AMERICA,SAN JOAQUIN,COMPRESSION,36.2674,-120.3659,CHEVRON AND OTHERS,ONSHORE,OIL,MATURE PRODUCTION,WRENCH,150.0,NEOGENE,SHALY SANDSTONE,210.0,57.0,34.0,850.0,952.8619528619529,,,
CORMORANT,BRENT,UK,EUROPE,NORTH SEA NORTHERN,,61.1286,1.1066,SHELL,OFFSHORE,OIL,NEARLY DEPLETED,RIFT,2310.0,JURASSIC,SANDSTONE,90.0,67.5,,500.0,849.8498498498498,0.38,,
COTTONWOOD CREEK,PHOSPHORIA (ERVAY),USA,NORTH AMERICA,BIG HORN,COMPRESSION,44.039,-107.748,BP,ONSHORE,OIL,DECLINING PRODUCTION,FORELAND,1410.0,PERMIAN,DOLOMITE,19.5,6.3,8.0,0.5,892.7444794952681,0.44,,
COUNTESS,UPPER MANNVILLE (YY POOL),CANADA,NORTH AMERICA,WESTERN CANADA,COMPRESSION,50.6174,-112.2057,ENCANA,ONSHORE,OIL,DECLINING PRODUCTION,FORELAND,1004.1,CRETACEOUS,SANDSTONE,18.8,5.4,26.0,2500.0,904.1533546325878,0.45,,
CRYSTAL (CANADA),VIKING (A POOL),CANADA,NORTH AMERICA,WESTERN CANADA,COMPRESSION,52.9506,-114.429,WESTCOAST PETROLEUM,ONSHORE,OIL,DECLINING PRODUCTION,FORELAND,1752.0,CRETACEOUS,SANDSTONE,9.6,9.0,10.5,200.0,829.9120234604105,0.35,,
CRYSTAL (USA),DUNDEE,USA,NORTH AMERICA,MICHIGAN,STRIKE-SLIP,43.2827,-84.8716,CRONUS DEVELOPMENT,ONSHORE,OIL,NEARLY DEPLETED,INTRACRATONIC,954.0,DEVONIAN,DOLOMITE,30.0,7.8,10.0,3.0,806.2678062678062,0.22,,
CUSIANA,MIRADOR,COLOMBIA,LATIN AMERICA,LLANOS,COMPRESSION,5.0299,-72.6719,BP AND OTHERS,ONSHORE,OIL,DECLINING PRODUCTION,THRUST,3900.0,PALEOGENE,SANDSTONE,120.0,60.0,9.0,100.0,842.7635497319832,0.6,,0.8
CUT BANK,CUT BANK SANDSTONE,USA,NORTH AMERICA,WESTERN CANADA,,48.8208,-112.2007,MONTANA POWER COMPANY,ONSHORE,OIL,NEARLY DEPLETED,FORELAND,630.0,CRETACEOUS,SANDSTONE,14.1,4.8,,110.0,834.8082595870206,0.3,,
CYMRIC,TULARE,USA,NORTH AMERICA,SAN JOAQUIN,COMPRESSION,35.3826,-119.708,CHEVRON /PXP,ONSHORE,OIL,DECLINING PRODUCTION,WRENCH,300.0,NEOGENE,SANDSTONE,180.0,60.0,35.0,3000.0,979.2387543252596,,,
DAN,CHALK GROUP (TOR-EKOFISK),DENMARK,EUROPE,NORTH SEA CENTRAL,INVERSION,55.4696,5.13375,MAERSK,OFFSHORE,OIL,PLATEAU PRODUCTION,SALT,1668.0,CRETACEOUS-PALEOGENE,CHALK,150.0,48.0,28.0,1.8,876.1609907120743,0.27,,0.47
DAQING (LAMADIAN),SAERTU-PUTAOHUA-GAOTAIZI,CHINA,FAR EAST,SONGLIAO,INVERSION,46.7167,124.8333,PETROCHINA,ONSHORE,OIL,DECLINING PRODUCTION,INVERSION,820.2,CRETACEOUS,THINLY-BEDDED SANDSTONE,180.0,30.0,26.0,1500.0,860.1823708206687,0.39,,
DAULETABAD-DONMEZ,SHATLYK,TURKMENISTAN,FORMER SOVIET UNION,AMU DARYA,,36.4381,61.6544,TURKMENROSGAZ,ONSHORE,GAS,PLATEAU PRODUCTION,INTRACRATONIC,2805.0,CRETACEOUS,SANDSTONE,19.8,13.8,,350.0,,,,0.81
DEFA,WAHA-DEFA,LIBYA,AFRICA,SIRT,EXTENSION,28.0781,19.915,LNOC,ONSHORE,OIL,UNKNOWN,RIFT,1557.9,CRETACEOUS-PALEOGENE,LIMESTONE,258.0,63.0,20.0,20.0,854.9848942598187,0.31,,
DELTA SOUTH,AGBADA (G2 SAND),NIGERIA,AFRICA,NIGER DELTA,GRAVITY,5.6139,5.1018,CHEVRON,OFFSHORE,OIL,DECLINING PRODUCTION,DELTA,2395.5,NEOGENE,SANDSTONE,19.8,15.0,28.0,2000.0,829.9120234604105,0.62,,0.79
DELTA SOUTH,AGBADA (G3 SAND),NIGERIA,AFRICA,NIGER DELTA,GRAVITY,5.6139,5.1018,CHEVRON,OFFSHORE,OIL,DECLINING PRODUCTION,DELTA,2464.5,NEOGENE,SANDSTONE,39.0,27.0,26.5,2000.0,829.9120234604105,0.62,,0.82
DINEH-BI-KEYAH,UNNAMED,USA,NORTH AMERICA,DEFIANCE UPLIFT,UPLIFT,36.4773,-109.1404,KERR-MCGEE /HUMBLE,ONSHORE,OIL,NEARLY DEPLETED,INTRACRATONIC,840.0,PALEOGENE,VOLCANICS,28.5,24.0,10.0,0.5,810.888252148997,,,
DJARKUDUK,KYZYLTASH,AFGHANISTAN,FAR EAST,AMU DARYA,COMPRESSION,36.6167,65.7,AFGHANGAS,ONSHORE,GAS,REJUVENATING,INTRACRATONIC,1968.0,CRETACEOUS,SANDSTONE,135.0,26.7,23.0,214.0,,,,0.86
DJEITUN,RED SERIES,TURKMENISTAN,FORMER SOVIET UNION,CASPIAN SOUTH,COMPRESSION,39.58,52.83,DRAGON OIL,OFFSHORE,OIL,DEVELOPING,THRUST,2265.0,NEOGENE,SANDSTONE,3150.0,24.0,17.0,22.0,827.485380116959,0.33,,
DONGFANG 1-1,YINGGEHAI,CHINA,FAR EAST,YINGGEHAI,TRANSTENSION,18.6146,107.9364,CNOOC,OFFSHORE,GAS,DEVELOPING,WRENCH,1115.1,NEOGENE,SANDSTONE,198.0,92.4,25.0,88.3,775.3424657534247,,,0.7
DRAKE POINT,DRAKE POINT-INTREPID INLET,CANADA,NORTH AMERICA,SVERDRUP,COMPRESSION,76.4462,-108.9172,PANARCTIC OILS,ONSHORE,GAS,UNDEVELOPED,FORELAND,1017.0,JURASSIC,SANDSTONE,30.0,21.3,20.0,566.0,,,,0.93
DRAUGEN,ROGN (VIKING),NORWAY,EUROPE,MID-NORWAY SHELF,EXTENSION,64.3656,7.7891,SHELL,OFFSHORE,OIL,DECLINING PRODUCTION,PASSIVE MARGIN,1324.8,JURASSIC,SANDSTONE,30.0,19.8,20.0,6000.0,825.072886297376,,,
DUKHAN,ARAB C,QATAR,MIDDLE EAST,THE GULF,COMPRESSION,25.4211,50.7836,QATAR PETROLEUM,ONSHORE,OIL,SECOND PLATEAU PRODUTION,SALT,1589.1,JURASSIC,LIMESTONE,25.2,4.5,18.0,30.0,839.7626112759643,0.42,,
DUKHAN,ARAB D,QATAR,MIDDLE EAST,THE GULF,COMPRESSION,25.4211,50.7836,QATAR PETROLEUM,ONSHORE,OIL,SECOND PLATEAU PRODUTION,SALT,1631.7,JURASSIC,LIMESTONE,69.3,36.0,20.0,70.0,815.5619596541786,0.44,,
DUKHAN,UWAINAT,QATAR,MIDDLE EAST,THE GULF,COMPRESSION,25.4211,50.7836,QATAR PETROLEUM,ONSHORE,OIL,UNKNOWN,SALT,2016.3,JURASSIC,LIMESTONE,36.0,22.5,18.0,15.0,810.888252148997,0.34,,
DUNE,GRAYBURG,USA,NORTH AMERICA,PERMIAN,COMPRESSION,31.5521,-102.4349,NUMEROUS,ONSHORE,OIL,DECLINING PRODUCTION,FORELAND,990.0,PERMIAN,DOLOMITE,90.0,24.0,13.0,11.0,854.9848942598187,0.3,,
DURI,BEKASAP (KEDUA-PERTAMA SANDS),INDONESIA,FAR EAST,SUMATRA CENTRAL,INVERSION,1.2956,101.2304,CALTEX PACIFIC INDONESIA,ONSHORE,OIL,MATURE PRODUCTION,INVERSION,120.0,NEOGENE,SANDSTONE,84.0,45.0,34.0,1500.0,933.9933993399341,0.6,,
DURI,DURI (RINDU SAND),INDONESIA,FAR EAST,SUMATRA CENTRAL,INVERSION,1.2956,101.2304,CALTEX PACIFIC INDONESIA,ONSHORE,OIL,MATURE PRODUCTION,INVERSION,66.0,NEOGENE,SANDSTONE,36.0,15.6,32.0,1900.0,921.8241042345277,0.6,,
DZHIGALYBEG,RED SERIES,TURKMENISTAN,FORMER SOVIET UNION,CASPIAN SOUTH,COMPRESSION,39.47,52.73,DRAGON OIL,OFFSHORE,OIL,DEVELOPING,THRUST,3030.0,NEOGENE,SANDSTONE,2460.0,78.0,18.0,100.0,860.1823708206687,0.36,,
EAST CLINTON,RED FORK,USA,NORTH AMERICA,ANADARKO,,35.5017,-98.8745,ANSON GAS CO,ONSHORE,GAS-CONDENSATE,DECLINING PRODUCTION,FORELAND,3435.0,CARBONIFEROUS,SANDSTONE,60.0,36.0,,1.0,762.8032345013477,,0.7,0.8
EAST CROSSFIELD,WABAMUN (A POOL),CANADA,NORTH AMERICA,WESTERN CANADA,COMPRESSION,51.4001,-114.0265,BP AND OTHERS,ONSHORE,GAS,MATURE PRODUCTION,FORELAND,2310.0,DEVONIAN,DOLOMITE,30.0,20.3,6.1,5.2,,,,0.8
EAST TEXAS,WOODBINE,USA,NORTH AMERICA,GULF OF MEXICO NORTHERN ONSHORE,GRAVITY,32.1853,-94.9257,NUMEROUS,ONSHORE,OIL,DECLINING PRODUCTION,PASSIVE MARGIN,1050.0,CRETACEOUS,SANDSTONE,15.3,11.1,25.0,2098.0,829.9120234604105,0.86,,
EKOFISK,TOR-EKOFISK,NORWAY,EUROPE,NORTH SEA CENTRAL,INVERSION,56.5357,3.1985,CONOCOPHILLIPS,OFFSHORE,OIL,SECOND PLATEAU PRODUTION,SALT,2775.0,CRETACEOUS-PALEOGENE,CHALK,246.0,177.0,32.0,1.5,844.776119402985,0.49,,
EKOFISK WEST,TOR-EKOFISK,NORWAY,EUROPE,NORTH SEA CENTRAL,INVERSION,56.5667,3.0847,CONOCOPHILLIPS,OFFSHORE,GAS-CONDENSATE,ABANDONED,SALT,2961.0,CRETACEOUS-PALEOGENE,CHALK,195.0,108.0,30.0,1.5,806.2678062678062,,0.24,0.7
EL BORMA,KIRCHAOU,TUNISIA /ALGERIA,AFRICA,GHADAMES,COMPRESSION,31.65,9.18,SITEP /SONATRACH,ONSHORE,OIL,DECLINING PRODUCTION,SUB-SALT,2706.6,TRIASSIC,SANDSTONE,105.9,57.0,17.0,500.0,815.5619596541786,0.59,,
EL DORADO,ADMIRE 650 SAND,USA,NORTH AMERICA,CHEROKEE,INVERSION,37.8526,-97.8984,OCCIDENTAL,ONSHORE,OIL,ABANDONED,FORELAND,150.0,PERMIAN,SANDSTONE,12.0,5.4,28.0,240.0,839.7626112759643,0.34,,
EL FURRIAL,MERECURE (NARICUAL-LOS JABILLOS),VENEZUELA,LATIN AMERICA,EASTERN VENEZUELA,COMPRESSION,9.6835,-63.4529,PDVSA,ONSHORE,OIL,PLATEAU PRODUCTION,THRUST,3825.0,PALEOGENE,SANDSTONE,480.0,255.0,15.0,480.0,898.4126984126984,0.47,,
ELGIN,FULMAR,UK,EUROPE,NORTH SEA CENTRAL,,57.0,1.85,TOTAL,OFFSHORE,GAS-CONDENSATE,DECLINING PRODUCTION,SALT,5175.0,JURASSIC,SANDSTONE,294.0,226.5,,25.0,806.2678062678062,,,
ELK BASIN,MADISON,USA,NORTH AMERICA,BIG HORN,COMPRESSION,44.9789,-108.855,NUMEROUS,ONSHORE,OIL,MATURE PRODUCTION,THRUST,1305.0,CARBONIFEROUS,DOLOMITE,234.0,61.5,12.0,7.0,887.1473354231974,0.38,,
ELK BASIN,TENSLEEP,USA,NORTH AMERICA,BIG HORN,COMPRESSION,44.9789,-108.855,NUMEROUS,ONSHORE,OIL,ABANDONED,THRUST,1200.0,CARBONIFEROUS,SANDSTONE,75.0,33.0,17.0,150.0,876.1609907120743,,,
ELK-POCA,ORISKANY,USA,NORTH AMERICA,APPALACHIAN,COMPRESSION,38.6216,-81.6611,NUMEROUS,ONSHORE,GAS,NEARLY DEPLETED,FORELAND,1455.0,DEVONIAN,SANDSTONE,10.5,3.3,8.0,27.5,815.5619596541786,,,0.92
ELKHORN RANCH,MISSION CANYON (MADISON),USA,NORTH AMERICA,WILLISTON,COMPRESSION,47.2376,-103.5028,TENNECO /CENEX /SHELL,ONSHORE,OIL,DECLINING PRODUCTION,INTRACRATONIC,2737.5,CARBONIFEROUS,DOLOMITE,31.5,12.0,16.0,25.0,797.1830985915493,0.44,,
ELLIS RANCH,CLEVELAND,USA,NORTH AMERICA,ANADARKO,COMPRESSION,36.2724,-100.7161,NUMEROUS,ONSHORE,GAS,DECLINING PRODUCTION,FORELAND,1950.0,CARBONIFEROUS,SHALY SANDSTONE,45.0,7.8,14.0,0.4,797.1830985915493,,,
EMMA,SAN ANDRES,USA,NORTH AMERICA,PERMIAN,COMPRESSION,32.126999999999995,-102.6353,EXXONMOBIL,ONSHORE,OIL,NEARLY DEPLETED,FORELAND,1255.5,PERMIAN,DOLOMITE,105.0,12.0,8.0,3.0,860.1823708206687,,,
EMPIRE ABO,ABO,USA,NORTH AMERICA,PERMIAN,COMPRESSION,32.7677,-104.2507,BP,ONSHORE,OIL,NEARLY DEPLETED,FORELAND,1680.0,PERMIAN,DOLOMITE,90.0,45.3,10.0,50.0,810.888252148997,0.6,,
ENDICOTT,KEKIKTUK,USA,NORTH AMERICA,NORTH SLOPE,,70.3458,-148.0193,BP,OFFSHORE,OIL,DECLINING PRODUCTION,PASSIVE MARGIN,2845.2,CARBONIFEROUS,SANDSTONE,240.0,101.1,,1000.0,915.8576051779935,0.44,,
ERB WEST,STAGE IVD (N SAND),MALAYSIA,FAR EAST,SABAH,STRIKE-SLIP,6.353,115.67,PETRONAS,OFFSHORE,OIL,DECLINING PRODUCTION,WRENCH,1814.4,NEOGENE,SANDSTONE,165.0,42.0,20.0,140.0,876.1609907120743,0.44,,
ERSKINE,HEATHER,UK,EUROPE,NORTH SEA CENTRAL,INVERSION,57.0556,2.0694,CHEVRON,OFFSHORE,GAS-CONDENSATE,DECLINING PRODUCTION,RIFT,4470.0,JURASSIC,SANDSTONE,18.0,15.0,20.0,18.0,777.0455793520043,,,0.42
ERSKINE,PENTLAND,UK,EUROPE,NORTH SEA CENTRAL,INVERSION,57.0556,2.0694,CHEVRON,OFFSHORE,GAS-CONDENSATE,DECLINING PRODUCTION,RIFT,4410.0,JURASSIC,SANDSTONE,150.0,45.0,16.0,10.0,777.0455793520043,,,0.42
ERSKINE,PUFFIN (ERSKINE SANDSTONE),UK,EUROPE,NORTH SEA CENTRAL,INVERSION,57.0556,2.0694,CHEVRON,OFFSHORE,GAS-CONDENSATE,DECLINING PRODUCTION,RIFT,4410.0,JURASSIC,SHALY SANDSTONE,66.0,63.0,23.0,10.0,777.0455793520043,,,0.42
ETAME,GAMBA,GABON,AFRICA,GABON SOUTH,EXTENSION,-3.7656,10.5213,VAALCO,OFFSHORE,OIL,DEVELOPING,SUB-SALT,1677.0,CRETACEOUS,SANDSTONE,14.1,10.8,30.0,1550.0,844.776119402985,0.4,,
EUGENE ISLAND 330,LENTICULINA 1-TRIMOSINA A,USA,NORTH AMERICA,GULF OF MEXICO NORTHERN OFFSHORE,,28.2356,-91.7095,DEVON ENERGY /SHELL /CHEVRON,OFFSHORE,OIL,DECLINING PRODUCTION,DELTA,1158.0,NEOGENE,LOW-RESISTIVITY SANDSTONE,1950.0,60.0,,700.0,915.8576051779935,0.6,,0.75
EVEREST,FORTIES,UK,EUROPE,NORTH SEA CENTRAL,EXTENSION,57.75,1.81,BP,OFFSHORE,GAS-CONDENSATE,DECLINING PRODUCTION,RIFT,2402.4,PALEOGENE,SANDSTONE,25.5,15.0,22.0,27.0,,,,0.64
FAIRWAY,JAMES LIMESTONE,USA,NORTH AMERICA,GULF OF MEXICO NORTHERN ONSHORE,GRAVITY,32.1068,-95.5215,HUNT OIL COMPANY,ONSHORE,OIL,NEARLY DEPLETED,SALT,3000.0,CRETACEOUS,LIMESTONE,45.0,21.0,11.0,25.0,788.3008356545961,0.56,,
FLOUNDER,LATROBE (T1.1 UNIT),AUSTRALIA,FAR EAST,GIPPSLAND,INVERSION,-38.33,148.417,EXXONMOBIL /BHP BILLITON,OFFSHORE,OIL,DECLINING PRODUCTION,INVERSION,2303.1,CRETACEOUS,SANDSTONE,41.4,37.5,20.0,1200.0,794.0516273849607,0.55,,0.7
FORD-GERALDINE,BELL CANYON,USA,NORTH AMERICA,PERMIAN,COMPRESSION,31.92,-104.0,CONOCOPHILLIPS,ONSHORE,OIL,NEARLY DEPLETED,FORELAND,795.0,PERMIAN,SANDSTONE,14.1,7.5,21.0,18.0,825.072886297376,0.315,,
FRANKLIN,FULMAR,UK,EUROPE,NORTH SEA CENTRAL,INVERSION,56.9667,1.8667,TOTAL,OFFSHORE,GAS-CONDENSATE,PLATEAU PRODUCTION,SALT,4908.0,JURASSIC,SANDSTONE,294.0,147.0,16.0,10.0,806.2678062678062,,,
FRIENDSWOOD,FRIO,USA,NORTH AMERICA,GULF OF MEXICO NORTHERN ONSHORE,,29.5608,-95.1893,EXXONMOBIL,ONSHORE,OIL,NEARLY DEPLETED,DELTA,1654.5,PALEOGENE,SANDSTONE,204.0,117.0,,2350.0,880.5227131300561,0.82,,
FULLERTON,WICHITA-CLEARFORK,USA,NORTH AMERICA,PERMIAN,COMPRESSION,32.388000000000005,-102.803,EXXONMOBIL,ONSHORE,OIL,NEARLY DEPLETED,FORELAND,2010.0,PERMIAN,DOLOMITE,600.0,45.0,10.0,3.0,815.5619596541786,0.28,,
FUYU,FUYU (QUANTOU),CHINA,FAR EAST,SONGLIAO,INVERSION,45.1999,124.8167,PETROCHINA,ONSHORE,OIL,DECLINING PRODUCTION,INVERSION,309.0,CRETACEOUS,SANDSTONE,78.0,9.9,24.0,182.0,870.7692307692307,0.33,,
GAMYSHLDZHA,RED SERIES (HK-1 TO HK-5),TURKMENISTAN,FORMER SOVIET UNION,CASPIAN SOUTH,COMPRESSION,36.4333,54.0,TURKMENNEFT,ONSHORE,OIL,DECLINING PRODUCTION,FORELAND,2726.4,NEOGENE,SANDSTONE,540.0,48.0,20.0,125.0,898.4126984126984,0.36,,0.82
GAROUPA,MACAE (QUISSAMA),BRAZIL,LATIN AMERICA,CAMPOS,GRAVITY,-22.379,-40.4117,PETROBRAS,OFFSHORE,OIL,MATURE PRODUCTION,SALT,2990.1,CRETACEOUS,LIMESTONE,128.1,48.0,19.0,175.0,876.1609907120743,0.45,,
GARRINGTON,CARDIUM (A SAND),CANADA,NORTH AMERICA,WESTERN CANADA,COMPRESSION,51.7349,-114.0274,HUDSONS BAY OIL and GAS,ONSHORE,OIL,NEARLY DEPLETED,FORELAND,1620.0,CRETACEOUS,SANDSTONE,90.0,0.6,12.0,7.0,829.9120234604105,0.11,,
GARRINGTON,CARDIUM (B SAND),CANADA,NORTH AMERICA,WESTERN CANADA,COMPRESSION,51.7349,-114.0274,HUDSONS BAY OIL and GAS,ONSHORE,OIL,NEARLY DEPLETED,FORELAND,1650.0,CRETACEOUS,SANDSTONE,90.0,0.9,13.3,43.2,829.9120234604105,0.11,,
GASIKULE,LOWER GANCHAIGOU,CHINA,FAR EAST,QAIDAM,COMPRESSION,38.1,90.87,PETROCHINA,ONSHORE,OIL,PLATEAU PRODUCTION,THRUST,3128.1,PALEOGENE,SANDSTONE,241.2,27.9,14.0,48.0,839.7626112759643,0.3,,
GASIKULE,UPPER GANCHAIGOU-LOWER YOUSHAS,CHINA,FAR EAST,QAIDAM,COMPRESSION,38.1,90.87,PETROCHINA,ONSHORE,OIL,PLATEAU PRODUCTION,THRUST,1259.7,NEOGENE,SANDSTONE,984.3,24.3,19.0,102.0,849.8498498498498,0.22,,
GENESIS,N1-N3,USA,NORTH AMERICA,GULF OF MEXICO NORTHERN OFFSHORE,GRAVITY,27.7656,-90.72,CHEVRON,OFFSHORE,OIL,PLATEAU PRODUCTION,DELTA,2586.0,NEOGENE,SANDSTONE,120.0,75.0,32.0,800.0,887.1473354231974,0.29,,
GIDGEALPA,HUTTON,AUSTRALIA,FAR EAST,COOPER/EROMANGA,INVERSION,-28.0,140.0,SANTOS,ONSHORE,OIL,PLATEAU PRODUCTION,INTRACRATONIC,1617.6,JURASSIC,SANDSTONE,180.0,15.0,18.0,1000.0,801.6997167138811,0.44,,
GIRASSOL,MALEMBO (B SAND SYSTEM),ANGOLA,AFRICA,CONGO,,-7.6714,11.7025,TOTAL,OFFSHORE,OIL,DEVELOPING,SALT,1041.0,PALEOGENE,SANDSTONE,237.0,90.0,,4200.0,865.4434250764525,0.47,,
GLENBURN,MISSION CANYON (FROBISHER-ALIDA),USA,NORTH AMERICA,WILLISTON,COMPRESSION,48.5237,-101.1809,ANSCHUTZ AND OTHERS,ONSHORE,OIL,MATURE PRODUCTION,INTRACRATONIC,1452.0,CARBONIFEROUS,LIMESTONE,30.0,3.0,17.0,24.0,892.7444794952681,0.22,,
GOLDEN SPIKE,LEDUC,CANADA,NORTH AMERICA,WESTERN CANADA,COMPRESSION,53.4193,-113.8877,IMPERIAL OIL RESOURCES,ONSHORE,OIL,NEARLY DEPLETED,FORELAND,1605.0,DEVONIAN,LIMESTONE,193.8,144.0,10.0,50.0,839.7626112759643,0.598,,
GORGON,MUNGAROO,AUSTRALIA,FAR EAST,CARNARVON,INVERSION,-20.5787,114.7728,CHEVRON,OFFSHORE,GAS,UNDEVELOPED,RIFT,3090.0,TRIASSIC,SANDSTONE,690.0,78.0,16.0,700.0,822.6744186046511,,,0.37
GOTURDEPE,RED SERIES,TURKMENISTAN,FORMER SOVIET UNION,CASPIAN SOUTH,COMPRESSION,39.66,53.77,TURKMENNEFT,ONSHORE,OIL,MATURE PRODUCTION,THRUST,1560.0,NEOGENE,SANDSTONE,2250.0,240.0,23.0,100.0,860.1823708206687,0.48,,0.82
GREATER BURGAN,WARA-BURGAN,KUWAIT,MIDDLE EAST,THE GULF,COMPRESSION,28.9167,47.9333,KUWAIT OIL CO,ONSHORE,OIL,REJUVENATING,FORELAND,1065.0,CRETACEOUS,LOW-RESISTIVITY SANDSTONE,405.0,270.0,24.0,1000.0,865.4434250764525,0.36,,
GRIFFIN,BIRDRONG,AUSTRALIA,FAR EAST,CARNARVON,INVERSION,-21.2356,114.62,BHP BILLITON,OFFSHORE,OIL,DEVELOPING,RIFT,2430.0,CRETACEOUS,SANDSTONE,34.5,12.0,15.0,30.0,758.7131367292225,0.3,,
GRIFFIN,ZEEPAARD,AUSTRALIA,FAR EAST,CARNARVON,,-21.2356,114.62,BHP BILLITON,OFFSHORE,OIL,DECLINING PRODUCTION,RIFT,2460.0,CRETACEOUS,SANDSTONE,128.1,88.5,,1300.0,758.7131367292225,,,
GUANGLI,SHAHEJIE (SHA-4),CHINA,FAR EAST,BOHAI,EXTENSION,37.4167,118.7499,SINOPEC,ONSHORE,OIL,MATURE PRODUCTION,RIFT,2423.1,PALEOGENE,SILTSTONE,90.0,12.3,24.0,681.0,887.1473354231974,0.4,,
GUDAO,GUANTAO,CHINA,FAR EAST,BOHAI,EXTENSION,37.8667,118.7499,SINOPEC,ONSHORE,OIL,DECLINING PRODUCTION,RIFT,1105.8,NEOGENE,SANDSTONE,237.0,26.4,33.0,1500.0,959.3220338983051,0.32,,
GULLFAKS,BRENT,NORWAY,EUROPE,NORTH SEA NORTHERN,EXTENSION,61.1797,2.2121,STATOILHYDRO,OFFSHORE,OIL,DECLINING PRODUCTION,RIFT,1512.0,JURASSIC,SANDSTONE,294.0,157.5,30.0,1000.0,829.9120234604105,0.65,,
GULLFAKS,STATFJORD,NORWAY,EUROPE,NORTH SEA NORTHERN,EXTENSION,61.1797,2.2121,STATOILHYDRO,OFFSHORE,OIL,DECLINING PRODUCTION,RIFT,1656.0,TRIASSIC-JURASSIC,SANDSTONE,189.0,118.2,26.0,1000.0,829.9120234604105,0.6,,
HAFT KEL,ASMARI,IRAN,MIDDLE EAST,ZAGROS,,31.4333,49.55,NIOC,ONSHORE,OIL,MATURE PRODUCTION,FORELAND,840.3,PALEOGENE-NEOGENE,DOLOMITIC LIMESTONE,265.2,202.5,,1.0,834.8082595870206,0.26,,0.45
HALIBUT-COBIA,LATROBE (M1 UNIT),AUSTRALIA,FAR EAST,GIPPSLAND,INVERSION,-38.3989,148.3164,EXXONMOBIL /BHP BILLITON,OFFSHORE,OIL,MATURE PRODUCTION,INVERSION,2152.5,PALEOGENE,SANDSTONE,151.5,36.0,20.0,1600.0,810.888252148997,0.71,,
HANDIL,BALIKPAPAN,INDONESIA,FAR EAST,KUTAI,INVERSION,-0.8425,117.2786,TOTAL,OFFSHORE,OIL,DECLINING PRODUCTION,INVERSION,204.0,NEOGENE,SANDSTONE,3750.0,390.0,18.0,200.0,857.5757575757575,0.5,,0.83
HARMATTAN EAST,TURNER VALLEY (RUNDLE POOL),CANADA,NORTH AMERICA,WESTERN CANADA,,51.7569,-114.4351,SHELL,ONSHORE,GAS-CONDENSATE,MATURE PRODUCTION,FORELAND,2475.0,CARBONIFEROUS,DOLOMITE,36.0,11.4,,20.0,834.8082595870206,0.365,,0.772
HARMATTAN-ELKTON,TURNER VALLEY (RUNDLE C POOL),CANADA,NORTH AMERICA,WESTERN CANADA,COMPRESSION,51.6624,-114.429,BP AND OTHERS,ONSHORE,GAS-CONDENSATE,MATURE PRODUCTION,FORELAND,2625.0,CARBONIFEROUS,DOLOMITE,42.0,21.0,12.0,125.0,844.776119402985,0.42,,0.7440000000000001
HARTZOG DRAW,SHANNON,USA,NORTH AMERICA,POWDER RIVER,,43.9224,-105.9864,XTO ENERGY,ONSHORE,OIL,NEARLY DEPLETED,FORELAND,2700.0,CRETACEOUS,LOW-RESISTIVITY SANDSTONE,21.0,6.0,,12.0,844.776119402985,0.31,,
HATTERS POND,NORPHLET,USA,NORTH AMERICA,GULF OF MEXICO NORTHERN ONSHORE,GRAVITY,30.8976,-88.066,CHEVRON,ONSHORE,GAS-CONDENSATE,DECLINING PRODUCTION,SALT,5415.0,JURASSIC,SANDSTONE,105.0,60.0,10.4,0.5,762.8032345013477,,0.57,0.55
HAWK POINT,UPPER MINNELUSA (B SAND),USA,NORTH AMERICA,POWDER RIVER,COMPRESSION,44.0263,-105.5474,NIELSON and ASSOCIATES INC,ONSHORE,OIL,NEARLY DEPLETED,FORELAND,3387.0,PERMIAN,SANDSTONE,42.0,9.0,13.0,30.0,844.776119402985,,,
HAWKINS,WOODBINE,USA,NORTH AMERICA,GULF OF MEXICO NORTHERN ONSHORE,GRAVITY,32.6351,-95.2209,NUMEROUS,ONSHORE,OIL,NEARLY DEPLETED,SALT,1131.0,CRETACEOUS,SANDSTONE,157.5,90.0,27.0,3400.0,909.967845659164,0.66,,
HEATHER,BRENT,UK,EUROPE,NORTH SEA NORTHERN,EXTENSION,60.95,0.8833,DNO,OFFSHORE,OIL,MATURE PRODUCTION,RIFT,2694.3,JURASSIC,SANDSTONE,63.0,33.9,10.0,20.0,852.4096385542168,0.29,,
HEERA,BASSEIN (ZONE B),INDIA,FAR EAST,BOMBAY OFFSHORE,EXTENSION,18.172,72.313,ONGC,OFFSHORE,OIL,DECLINING PRODUCTION,PASSIVE MARGIN,1362.6,PALEOGENE,LIMESTONE,69.0,24.6,12.0,0.8,839.7626112759643,0.29,,
HEIDRUN,FANGST,NORWAY,EUROPE,MID-NORWAY SHELF,EXTENSION,65.3378,7.3096,STATOILHYDRO,OFFSHORE,OIL,PLATEAU PRODUCTION,RIFT,1707.6,JURASSIC,SANDSTONE,69.0,62.1,28.0,1450.0,881.619937694704,0.71,,
HENRY,DAKOTA SANDSTONE,USA,NORTH AMERICA,GREATER GREEN RIVER,COMPRESSION,41.1334,-110.1768,CABOT OIL and GAS,ONSHORE,GAS-CONDENSATE,DECLINING PRODUCTION,FORELAND,4099.5,CRETACEOUS,SANDSTONE,105.0,5.7,14.0,43.4,779.6143250688706,,,
HIBERNIA,AVALON,CANADA,NORTH AMERICA,JEANNE D ARC,EXTENSION,46.7495,-48.7822,HIBERNIA MANAGEMENT DEVELOPMENT CO,OFFSHORE,OIL,DEVELOPING,RIFT,1988.1,CRETACEOUS,SANDSTONE,354.0,34.5,20.0,220.0,871.8422674060381,0.05,,
HIBERNIA,HIBERNIA,CANADA,NORTH AMERICA,JEANNE D ARC,EXTENSION,46.7495,-48.7822,HIBERNIA MANAGEMENT DEVELOPMENT CO,OFFSHORE,OIL,PLATEAU PRODUCTION,RIFT,3267.0,CRETACEOUS,SANDSTONE,195.0,38.4,16.0,700.0,848.8302339532095,0.52,,
HIDES,IMBURU-TORO,PAPUA NEW GUINEA,FAR EAST,PAPUAN FTB,COMPRESSION,-6.0136,142.8409,OIL SEARCH LTD,ONSHORE,GAS-CONDENSATE,CONTINUING DEVELOPMENT,THRUST,2971.5,JURASSIC-CRETACEOUS,SANDSTONE,147.0,72.0,10.0,100.0,766.9376693766937,,,0.75
HOADLEY,GLAUCONITE,CANADA,NORTH AMERICA,WESTERN CANADA,COMPRESSION,52.8481,-114.187,NUMEROUS,ONSHORE,GAS-CONDENSATE,CONTINUING DEVELOPMENT,FORELAND,1470.0,CRETACEOUS,SANDSTONE,24.0,10.5,11.0,5.0,,,,
HOUSE CREEK,SUSSEX,USA,NORTH AMERICA,POWDER RIVER,COMPRESSION,43.7456,-105.5703,DEVON ENERGY,ONSHORE,OIL,DECLINING PRODUCTION,FORELAND,2358.9,CRETACEOUS,SANDSTONE,12.0,4.5,13.0,20.0,844.776119402985,,,
HUANXILING,SHAHEJIE,CHINA,FAR EAST,BOHAI,EXTENSION,41.0249,121.7667,PETROCHINA,ONSHORE,OIL,DECLINING PRODUCTION,RIFT,693.0,PALEOGENE,SANDSTONE,157.5,38.1,25.0,1400.0,881.619937694704,0.3,,
HUGOTON-PANHANDLE,CHASE (HUGOTON),USA,NORTH AMERICA,ANADARKO,COMPRESSION,37.0386,-101.0039,NUMEROUS,ONSHORE,GAS,DECLINING PRODUCTION,FORELAND,510.0,PERMIAN,DOLOMITE,72.0,13.5,14.0,5.0,,,,0.86
HUNTINGTON BEACH,BOLSA ZONE,USA,NORTH AMERICA,LOS ANGELES,STRIKE-SLIP,33.6998,-118.0335,NUMEROUS,ONSHORE-OFFSHORE,OIL,NEARLY DEPLETED,WRENCH,517.8,NEOGENE,THINLY-BEDDED SANDSTONE,198.0,45.6,34.0,2300.0,949.6644295302013,0.11,,
HUNTINGTON BEACH,JONES ZONE,USA,NORTH AMERICA,LOS ANGELES,STRIKE-SLIP,33.6998,-118.0335,NUMEROUS,ONSHORE-OFFSHORE,OIL,NEARLY DEPLETED,WRENCH,697.8,NEOGENE,THINLY-BEDDED SANDSTONE,210.0,112.5,28.0,400.0,924.8366013071895,0.35,,
HUTTON NORTHWEST,BRENT,UK,EUROPE,NORTH SEA NORTHERN,EXTENSION,61.1,1.3167,BP,OFFSHORE,OIL,ABANDONED,RIFT,3157.5,JURASSIC,SANDSTONE,123.0,54.0,18.0,100.0,839.7626112759643,0.26,,
IAGIFU-HEDINIA,TORO,PAPUA NEW GUINEA,FAR EAST,PAPUAN FTB,COMPRESSION,-6.4347,143.2116,CHEVRON,ONSHORE,OIL,DECLINING PRODUCTION,THRUST,1525.2,CRETACEOUS,SANDSTONE,98.4,90.0,13.0,600.0,810.888252148997,,,
IDD EL SHARGI NORTH DOME,SHUAIBA,QATAR,MIDDLE EAST,RUB AL KHALI,GRAVITY,25.5,52.4,OCCIDENTAL,OFFSHORE,OIL,MATURE PRODUCTION,SALT,1314.3,CRETACEOUS,CHALKY LIMESTONE,98.4,76.8,25.0,3.0,892.7444794952681,0.34,,
INDEFATIGABLE,LEMAN SANDSTONE,UK,EUROPE,NORTH SEA SOUTHERN,INVERSION,53.3932,2.5239,SHELL /PERENCO,OFFSHORE,GAS,NEARLY DEPLETED,SUB-SALT,2220.0,PERMIAN,SANDSTONE,60.0,59.1,15.0,30.0,,,,0.84
JAMESON,COOK,USA,NORTH AMERICA,PERMIAN,,32.08,-100.6289,SUN OIL COMPANY,ONSHORE,OIL,NEARLY DEPLETED,FORELAND,1710.0,PERMIAN,THINLY-BEDDED SANDSTONE,45.0,10.5,,35.0,792.7170868347339,0.34,,
JAY,SMACKOVER,USA,NORTH AMERICA,GULF OF MEXICO NORTHERN ONSHORE,GRAVITY,30.9557,-87.1783,EXXONMOBIL,ONSHORE,OIL,NEARLY DEPLETED,SUB-SALT,4588.5,JURASSIC,DOLOMITE,105.0,30.0,14.0,35.0,775.3424657534247,0.58,,
JINGBIAN,MAJIAGOU-5,CHINA,FAR EAST,ORDOS,COMPRESSION,37.6667,108.8333,PETROCHINA,ONSHORE,GAS,DEVELOPING,FORELAND,2940.0,ORDOVICIAN,DOLOMITE,45.0,14.1,5.6,3.0,,,,0.65
JOFFRE,VIKING,CANADA,NORTH AMERICA,WESTERN CANADA,COMPRESSION,52.283,-113.5543,VIKOR RESOURCES,ONSHORE,OIL,NEARLY DEPLETED,FORELAND,1476.3,CRETACEOUS,SANDSTONE,34.5,3.0,13.2,190.0,825.072886297376,0.44,,
JOLLIET,GG-KS SANDS,USA,NORTH AMERICA,GULF OF MEXICO NORTHERN OFFSHORE,,27.7672,-91.516,CONOCOPHILLIPS,OFFSHORE,OIL,DECLINING PRODUCTION,SUB-THRUST,1272.0,NEOGENE,SANDSTONE,1110.0,83.1,,288.0,854.9848942598187,0.4,,
JONAH,LANCE,USA,NORTH AMERICA,GREATER GREEN RIVER,,42.4113,-109.6876,ENCANA AND OTHERS,ONSHORE,GAS,PLATEAU PRODUCTION,FORELAND,2280.0,CRETACEOUS,SANDSTONE,1050.0,126.0,,0.1,758.7131367292225,,,0.28
JUDY CREEK,SWAN HILLS (JUDY CREEK A POOL),CANADA,NORTH AMERICA,WESTERN CANADA,COMPRESSION,54.4995,-115.4904,IMPERIAL OIL RESOURCES,ONSHORE,OIL,MATURE PRODUCTION,FORELAND,2562.0,DEVONIAN,LIMESTONE,69.0,18.0,9.0,45.0,820.2898550724638,0.46,,
JULY,LOWER RUDEIS,EGYPT,AFRICA,GULF OF SUEZ,,28.2499,33.2499,GUPCO,OFFSHORE,OIL,MATURE PRODUCTION,SUB-SALT,2344.5,NEOGENE,SANDSTONE,270.0,155.4,,160.0,865.4434250764525,0.55,,
JULY,NUBIA C,EGYPT,AFRICA,GULF OF SUEZ,EXTENSION,28.2499,33.2499,GUPCO,OFFSHORE,OIL,MATURE PRODUCTION,RIFT,2805.0,CAMBRIAN-ORDOVICIAN/CARBONIFEROUS,SANDSTONE,450.0,203.7,20.0,50.0,865.4434250764525,0.55,,
JUMPING POUND,TURNER VALLEY,CANADA,NORTH AMERICA,WESTERN CANADA,COMPRESSION,51.1425,-114.5786,SHELL,ONSHORE,GAS,NEARLY DEPLETED,SUB-THRUST,2430.0,CARBONIFEROUS,DOLOMITE,75.0,42.0,8.3,4.0,779.6143250688706,,,0.73
JUMPING POUND WEST,TURNER VALLEY,CANADA,NORTH AMERICA,WESTERN CANADA,COMPRESSION,51.1952,-114.8046,SHELL /ENCANA,ONSHORE,GAS,DECLINING PRODUCTION,SUB-THRUST,2961.0,CARBONIFEROUS,DOLOMITE,240.0,35.4,6.3,3.2,,,,0.68
KADI NORTH,KALOL,INDIA,FAR EAST,CAMBAY,INVERSION,23.43,72.28,ONGC,ONSHORE,OIL,REJUVENATING,RIFT,940.8,PALEOGENE,SANDSTONE,147.6,6.3,30.0,4000.0,927.8688524590165,0.32,,
KARACHAGANAK,UNNAMED,KAZAKHSTAN,FORMER SOVIET UNION,CASPIAN NORTH,COMPRESSION,51.3158,53.26,KARACHAGANAK INTEGRATED ORAGANIZATION,ONSHORE,GAS-CONDENSATE,REJUVENATING,SUB-SALT,3561.0,DEVONIAN-PERMIAN,LIMESTONE,1980.0,780.0,10.0,8.0,849.8498498498498,0.33,0.43,
KARAZHANBAS,UNITS A-E,KAZAKHSTAN,FORMER SOVIET UNION,USTYURT NORTH,COMPRESSION,45.1,51.5833,NATIONS ENERGY /KARAZHANBASMUNAI,ONSHORE,OIL,REJUVENATING,WRENCH,227.4,CRETACEOUS,SANDSTONE,40.5,17.7,28.0,240.0,943.3333333333334,0.41,,
KASIM,KAIS,INDONESIA,FAR EAST,SALAWATI,COMPRESSION,-1.3253,131.0392,PETROCHINA INTERNATIONAL,ONSHORE,OIL,NEARLY DEPLETED,FORELAND,913.2,NEOGENE,LIMESTONE,168.3,36.9,21.0,38.0,839.7626112759643,0.65,,
KATNOOK,PRETTY HILL (SANDSTONE),AUSTRALIA,FAR EAST,OTWAY,INVERSION,-37.4556,140.7789,BORAL ENERGY RESOURCES LTD,ONSHORE,GAS,PLATEAU PRODUCTION,RIFT,2785.8,CRETACEOUS,SANDSTONE,66.3,18.6,14.5,8.6,779.6143250688706,,,0.93
KATY,YEGUA,USA,NORTH AMERICA,GULF OF MEXICO NORTHERN ONSHORE,GRAVITY,29.8443,-95.8638,EXXONMOBIL AND OTHERS,ONSHORE,GAS-CONDENSATE,NEARLY DEPLETED,DELTA,1881.0,PALEOGENE,SANDSTONE,405.0,100.5,28.0,275.0,766.9376693766937,,0.53,0.79
KAYBOB,SWAN HILLS,CANADA,NORTH AMERICA,WESTERN CANADA,COMPRESSION,54.5507,-116.782,CHEVRON,ONSHORE,OIL,NEARLY DEPLETED,FORELAND,2859.0,DEVONIAN,LIMESTONE,77.1,16.8,7.4,24.0,813.2183908045977,0.52,,
KELA-2,BASHJICHK,CHINA,FAR EAST,TARIM,,42.1255,82.5255,PETROCHINA,ONSHORE,GAS,UNDEVELOPED,SUB-SALT,3426.0,CRETACEOUS,SANDSTONE,285.0,198.0,,515.0,844.776119402985,,,0.75
KELAMAYI,KELAMAYI,CHINA,FAR EAST,JUNGGAR (ZHUNGEER),COMPRESSION,45.5417,84.8917,PETROCHINA,ONSHORE,OIL,DECLINING PRODUCTION,THRUST,1830.0,TRIASSIC,CONGLOMERATE,225.0,12.9,18.0,279.0,860.1823708206687,0.26,,
KEMNITZ,HUECO,USA,NORTH AMERICA,PERMIAN,COMPRESSION,32.8909,-103.6007,TENNECO,ONSHORE,OIL,NEARLY DEPLETED,FORELAND,3150.0,PERMIAN,LIMESTONE,36.0,18.0,9.0,9.0,829.9120234604105,,,
KF,LOWER GABUS,INDONESIA,FAR EAST,NATUNA WEST,INVERSION,4.9,106.0,STAR ENERGY,OFFSHORE,OIL,MATURE PRODUCTION,INVERSION,705.0,PALEOGENE,SANDSTONE,450.0,9.3,21.0,85.0,775.3424657534247,0.23,,0.71
KG,GABUS-KERAS-BARAT-PASIR-ARANG,INDONESIA,FAR EAST,NATUNA WEST,INVERSION,4.9977,106.0342,STAR ENERGY,OFFSHORE,OIL,MATURE PRODUCTION,INVERSION,780.0,PALEOGENE-NEOGENE,SANDSTONE,1740.0,56.4,23.0,180.0,797.1830985915493,0.62,,
KHAFJI,BURGAN,NEUTRAL ZONE,MIDDLE EAST,THE GULF,COMPRESSION,28.5333,48.9167,ARABIAN OIL CO,OFFSHORE,OIL,REJUVENATING,FORELAND,1417.5,CRETACEOUS,SANDSTONE,195.0,98.7,28.0,4500.0,884.375,0.4,,
KHAFJI,RATAWI LIMESTONE,NEUTRAL ZONE,MIDDLE EAST,THE GULF,INVERSION,28.5333,48.9167,ARABIAN OIL CO,OFFSHORE,OIL,UNKNOWN,FORELAND,2047.5,CRETACEOUS,LIMESTONE,165.0,51.9,22.0,17.0,860.1823708206687,,,
KHALDA,LOWER BAHARIYA,EGYPT,AFRICA,MATRUH-SHUSHAN,EXTENSION,30.8196,26.7429,KHALDA PETROLEUM,ONSHORE,OIL,DECLINING PRODUCTION,PASSIVE MARGIN,1755.0,CRETACEOUS,LOW-RESISTIVITY SANDSTONE,30.0,10.5,20.5,70.0,834.8082595870206,0.23,,
KINABALU,STAGES IVD-IVF (KINABALU MAIN),MALAYSIA,FAR EAST,SABAH,GRAVITY,5.4296,114.6992,SHELL,OFFSHORE,OIL,DECLINING PRODUCTION,DELTA,1521.0,NEOGENE,SANDSTONE,1605.0,439.8,22.0,280.0,847.3053892215569,0.43,,
KITTY,MUDDY,USA,NORTH AMERICA,POWDER RIVER,COMPRESSION,44.3344,-105.6783,DEVON ENERGY AND OTHERS,ONSHORE,OIL,NEARLY DEPLETED,FORELAND,2595.0,CRETACEOUS,SHALY SANDSTONE,24.0,3.6,10.0,15.0,828.4543325526931,,,
KOROBKOV,BOBRIKOV B2,RUSSIA,FORMER SOVIET UNION,VOLGA-URAL,COMPRESSION,50.3333,44.6375,NIZHNEVOLZHSKNEFT,ONSHORE,OIL,NEARLY DEPLETED,FORELAND,1740.0,CARBONIFEROUS,SANDSTONE,19.8,9.9,20.0,460.0,825.072886297376,0.66,,
KOROBKOV,MAIN CARBONATE COMPLEX,RUSSIA,FORMER SOVIET UNION,VOLGA-URAL,COMPRESSION,50.3333,44.6375,NIZHNEVOLZHSKNEFT,ONSHORE,GAS,NEARLY DEPLETED,FORELAND,1320.0,CARBONIFEROUS,LIMESTONE,117.0,33.0,5.4,200.0,,,,0.92
KOROLEV,NUMEROUS,KAZAKHSTAN,FORMER SOVIET UNION,CASPIAN NORTH,COMPRESSION,46.2175,53.5381,TENGIZCHEVROIL,ONSHORE,OIL,DEVELOPING,SUB-SALT,3823.8,CARBONIFEROUS-PERMIAN,LIMESTONE,1050.0,450.0,6.0,6.0,788.3008356545961,0.4,,
KOROLEV,UNNAMED,KAZAKHSTAN,FORMER SOVIET UNION,CASPIAN NORTH,,46.2175,53.5381,TENGIZCHEVROIL,ONSHORE,OIL,UNDEVELOPED,SALT,514.8,CRETACEOUS,SANDSTONE,21.6,7.8,,48.0,965.8703071672355,0.18,,
KOTABATAK,BEKASAP (A SAND),INDONESIA,FAR EAST,SUMATRA CENTRAL,INVERSION,0.687,101.1053,CALTEX PACIFIC,ONSHORE,OIL,DECLINING PRODUCTION,INVERSION,1245.0,NEOGENE,SANDSTONE,105.0,60.0,17.0,393.0,881.619937694704,0.475,,
KOVYKTA,PARFENOV,RUSSIA,FORMER SOVIET UNION,SIBERIAN EASTERN,COMPRESSION,55.4167,106.0,RUSIA PETROLEUM,ONSHORE,GAS,UNDEVELOPED,INTRACRATONIC,1200.0,PROTEROZOIC,SANDSTONE,60.0,14.7,16.0,5.0,698.7654320987654,,,
KULESHOV,A3,RUSSIA,FORMER SOVIET UNION,VOLGA-URAL,COMPRESSION,52.8381,51.2136,KUYBYSHEVNEFT,ONSHORE,OIL,NEARLY DEPLETED,FORELAND,1579.8,CARBONIFEROUS,SANDSTONE,21.0,13.8,20.0,177.0,801.6997167138811,0.56,,
KULESHOV,A4,RUSSIA,FORMER SOVIET UNION,VOLGA-URAL,COMPRESSION,52.8381,51.2136,KUYBYSHEVNEFT,ONSHORE,OIL,NEARLY DEPLETED,FORELAND,1614.3,CARBONIFEROUS,LIMESTONE,99.0,22.5,18.0,195.0,801.6997167138811,0.49,,
KUPARUK RIVER,KUPARUK RIVER (UNIT C),USA,NORTH AMERICA,NORTH SLOPE,COMPRESSION,70.34,-149.5375,CONOCOPHILLIPS,ONSHORE,OIL,DECLINING PRODUCTION,FORELAND,1686.0,CRETACEOUS,LOW-RESISTIVITY SANDSTONE,10.5,6.0,24.0,138.0,909.967845659164,0.53,,
KURTEN,WOODBINE-EAGLEFORD,USA,NORTH AMERICA,GULF OF MEXICO NORTHERN ONSHORE,GRAVITY,30.786,-96.4318,NUMEROUS,ONSHORE,OIL,DECLINING PRODUCTION,PASSIVE MARGIN,2382.0,CRETACEOUS,SANDSTONE,90.0,7.2,9.3,0.6,832.3529411764705,0.19,,
LAGOA PARDA,LAGOA PARDA (URUCUTUCA),BRAZIL,LATIN AMERICA,ESPIRITO SANTO,EXTENSION,-19.6017,-39.8332,PETROBRAS,ONSHORE,OIL,NEARLY DEPLETED,PASSIVE MARGIN,1452.9,PALEOGENE,SANDSTONE,639.9,21.6,23.0,350.0,876.1609907120743,0.51,,
LAKE CREEK,WILCOX (G SAND),USA,NORTH AMERICA,GULF OF MEXICO NORTHERN ONSHORE,GRAVITY,30.2546,-95.5906,EXXONMOBIL,ONSHORE,GAS,DECLINING PRODUCTION,DELTA,3446.1,PALEOGENE,SANDSTONE,87.0,21.0,11.0,0.4,771.1171662125341,,,0.37
LAMA,COGOLLO,VENEZUELA,LATIN AMERICA,MARACAIBO,,10.0131,-71.5985,PDVSA,OFFSHORE,OIL,DECLINING PRODUCTION,WRENCH,3720.0,CRETACEOUS,LIMESTONE,360.0,60.0,,0.1,839.7626112759643,0.2,,
LAMA,SANTA BARBARA,VENEZUELA,LATIN AMERICA,MARACAIBO,STRIKE-SLIP,10.0131,-71.5985,PDVSA,OFFSHORE,OIL,DECLINING PRODUCTION,WRENCH,2100.0,NEOGENE,SANDSTONE,18.0,9.9,25.0,400.0,865.4434250764525,0.3,,
LANWA,KALOL,INDIA,FAR EAST,CAMBAY,INVERSION,23.568,72.137,ONGC,ONSHORE,OIL,DECLINING PRODUCTION,RIFT,861.9,PALEOGENE,SANDSTONE,44.4,9.9,30.0,5000.0,979.2387543252596,,,
LAOJUNMIAO,BAIYANGHE (GANYOUQUAN K SAND),CHINA,FAR EAST,JIUQUAN,COMPRESSION,39.7658,97.5663,PETROCHINA,ONSHORE,OIL,NEARLY DEPLETED,THRUST,100.5,PALEOGENE,SANDSTONE,63.0,12.9,21.0,237.0,856.0193587416818,0.3,,
LAOJUNMIAO,BAIYANGHE (JIANQUANZI L SAND),CHINA,FAR EAST,JIUQUAN,COMPRESSION,39.7658,97.5663,PETROCHINA,ONSHORE,OIL,NEARLY DEPLETED,THRUST,408.6,PALEOGENE,SANDSTONE,54.0,11.7,23.0,619.0,858.0958156458458,0.51,,
LAOJUNMIAO,BAIYANGHE (JIANQUANZI M SAND),CHINA,FAR EAST,JIUQUAN,COMPRESSION,39.7658,97.5663,PETROCHINA,ONSHORE,OIL,MATURE PRODUCTION,THRUST,459.6,PALEOGENE,SANDSTONE,63.0,24.6,17.8,24.0,863.8583638583639,0.37,,
LISBON,LEADVILLE (REDWALL),USA,NORTH AMERICA,PARADOX,GRAVITY,38.1983,-109.2767,PURE OIL COMPANY /CHEVRON,ONSHORE,OIL,NEARLY DEPLETED,INTRACRATONIC,2187.0,CARBONIFEROUS,DOLOMITE,129.0,67.5,5.5,22.0,762.8032345013477,0.55,,
LISBURNE,WAHOO (LISBURNE),USA,NORTH AMERICA,NORTH SLOPE,,70.2425,-148.3955,BP,ONSHORE,OIL,MATURE PRODUCTION,FORELAND,2520.0,CARBONIFEROUS,LIMESTONE,210.0,30.0,,1.0,881.619937694704,0.075,,
LITTLE BOW,GLAUCONITE (G-U-W POOLS),CANADA,NORTH AMERICA,WESTERN CANADA,COMPRESSION,50.1951,-112.6507,MASTERS ENERGY,ONSHORE,OIL,DECLINING PRODUCTION,FORELAND,1122.0,CRETACEOUS,SANDSTONE,19.8,6.0,22.0,800.0,946.4882943143813,0.25,,
LITTLE CREEK,LOWER TUSCALOOSA,USA,NORTH AMERICA,MISSISSIPPI SALT,,31.3576,-90.3754,DENBURY RESOURCES,ONSHORE,OIL,REJUVENATING,PASSIVE MARGIN,3126.0,CRETACEOUS,SANDSTONE,12.0,9.0,,100.0,829.9120234604105,0.67,,
LITTLE KNIFE,MISSION CANYON (MADISON),USA,NORTH AMERICA,WILLISTON,COMPRESSION,47.2895,-103.0985,CHEVRON,ONSHORE,OIL,DECLINING PRODUCTION,INTRACRATONIC,2901.9,CARBONIFEROUS,DOLOMITE,139.5,7.2,14.0,30.0,810.888252148997,0.38,,
LITTLE SAND DRAW,PHOSPHORIA (ERVAY),USA,NORTH AMERICA,BIG HORN,COMPRESSION,43.8,-108.3,CITATION OIL and GAS,ONSHORE,OIL,MATURE PRODUCTION,FORELAND,1764.0,PERMIAN,DOLOMITE,30.0,19.5,15.0,2.6,844.776119402985,,,
LIUBEI,WUMISHAN,CHINA,FAR EAST,BOHAI,EXTENSION,38.2892,116.0,PETROCHINA,ONSHORE,OIL,NEARLY DEPLETED,RIFT,3159.3,PROTEROZOIC,DOLOMITE,234.3,114.3,3.2,5.4,839.7626112759643,0.19,,
LIUHUA 11-1,ZHUJIANG,CHINA,FAR EAST,PEARL RIVER MOUTH,EXTENSION,20.8219,115.6985,BP /CNOOC,OFFSHORE,OIL,DECLINING PRODUCTION,PASSIVE MARGIN,847.5,NEOGENE,LIMESTONE,468.6,39.3,25.0,651.0,937.0860927152319,0.08,,
LLOYDMINSTER AREA,SPARKY,CANADA,NORTH AMERICA,WESTERN CANADA,COMPRESSION,53.2642,-110.0276,HUSKY ENERGY,ONSHORE,OIL,PLATEAU PRODUCTION,FORELAND,570.0,CRETACEOUS,SANDSTONE,17.4,9.9,30.0,2000.0,965.8703071672355,0.08,,
LLOYDMINSTER AREA,WASECA,CANADA,NORTH AMERICA,WESTERN CANADA,COMPRESSION,53.2642,-110.0276,HUSKY ENERGY,ONSHORE,OIL,PLATEAU PRODUCTION,FORELAND,570.0,CRETACEOUS,SANDSTONE,27.0,15.0,34.0,2000.0,986.0627177700347,0.08,,
LOBSTER,BULMINELLA 1 SAND,USA,NORTH AMERICA,GULF OF MEXICO NORTHERN OFFSHORE,GRAVITY,28.101,-90.2021,MARATHON,OFFSHORE,OIL,DECLINING PRODUCTION,DELTA,2422.5,NEOGENE,SANDSTONE,138.0,45.0,24.0,900.0,921.8241042345277,0.52,,
LOCKHART CROSSING,WILCOX (1ST WILCOX SAND),USA,NORTH AMERICA,GULF OF MEXICO NORTHERN ONSHORE,GRAVITY,30.5218,-90.9141,CALLON PETROLEUM AND OTHERS,ONSHORE,OIL,MATURE PRODUCTION,DELTA,3024.6,PALEOGENE,SANDSTONE,40.5,7.8,20.0,35.0,820.2898550724638,0.46,,
LOST SOLDIER,TENSLEEP,USA,NORTH AMERICA,GREATER GREEN RIVER,,42.2392,-107.5587,MERIT ENERGY,ONSHORE,OIL,NEARLY DEPLETED,THRUST,1140.0,CARBONIFEROUS,SANDSTONE,180.0,63.0,,31.0,849.8498498498498,0.542,,
LUCKEY DITCH,DAKOTA SANDSTONE (LOWER MEMBER),USA,NORTH AMERICA,GREATER GREEN RIVER,COMPRESSION,41.0204,-110.2755,WHITING OIL and GAS,ONSHORE,OIL,MATURE PRODUCTION,FORELAND,3975.0,CRETACEOUS,SANDSTONE,75.0,6.9,14.0,60.0,813.2183908045977,0.15,,
LUGINETS,TYUMEN-NAUNAK,RUSSIA,FORMER SOVIET UNION,SIBERIAN WESTERN,COMPRESSION,58.1,78.5167,TOMSKNEFT (YUKOS),ONSHORE,OIL,REJUVENATING,INTRACRATONIC,2283.0,JURASSIC,SANDSTONE,90.0,60.0,17.0,20.0,829.9120234604105,0.26,,
MABEE,SAN ANDRES,USA,NORTH AMERICA,PERMIAN,COMPRESSION,32.226,-102.23,CHEVRON,ONSHORE,OIL,MATURE PRODUCTION,FORELAND,1404.0,PERMIAN,DOLOMITE,120.0,15.0,10.5,8.0,865.4434250764525,0.3,,
MACKEREL,LATROBE (L1 UNIT),AUSTRALIA,FAR EAST,GIPPSLAND,,-38.4822,148.3556,EXXONMOBIL /BHP BILLITON,OFFSHORE,OIL,NEARLY DEPLETED,INVERSION,2170.5,PALEOGENE,SANDSTONE,108.0,89.4,,800.0,801.6997167138811,,,
MAHOGANY (USA),O-Q SANDS,USA,NORTH AMERICA,GULF OF MEXICO NORTHERN OFFSHORE,GRAVITY,28.04,-90.96,PHILLIPS,OFFSHORE,OIL,DECLINING PRODUCTION,DELTA,3979.5,NEOGENE,LOW-RESISTIVITY SANDSTONE,450.0,88.5,29.0,1500.0,921.8241042345277,,,
MALING,YANAN,CHINA,FAR EAST,ORDOS,COMPRESSION,36.22,107.62,PETROCHINA,ONSHORE,OIL,DECLINING PRODUCTION,FORELAND,1132.8,JURASSIC,SANDSTONE,295.2,7.2,16.0,72.0,849.8498498498498,0.28,,
MANSURI,ILAM,IRAN,MIDDLE EAST,ZAGROS,COMPRESSION,30.8833,48.8333,NIOC,ONSHORE,OIL,CONTINUING DEVELOPMENT,FORELAND,3063.3,CRETACEOUS,CHALKY LIMESTONE,98.4,63.9,13.0,0.8,921.8241042345277,0.08,,
MANSURI,SARVAK 1,IRAN,MIDDLE EAST,ZAGROS,COMPRESSION,30.8833,48.8333,NIOC,ONSHORE,OIL,CONTINUING DEVELOPMENT,FORELAND,3210.9,CRETACEOUS,CHALKY LIMESTONE,246.0,278.4,9.0,0.2,904.1533546325878,0.08,,
MARKOVO,PARFENOV,RUSSIA,FORMER SOVIET UNION,SIBERIAN EASTERN,COMPRESSION,57.4375,107.3058,VOSTSIBNEFTEGAZGEOLOGIYA,ONSHORE,GAS-CONDENSATE,DEVELOPING,RIFT,2578.8,PROTEROZOIC,SANDSTONE,51.6,7.5,9.0,152.0,738.9033942558747,,,
MARLIM,CARAPEBUS,BRAZIL,LATIN AMERICA,CAMPOS,GRAVITY,-22.4348,-40.0666,PETROBRAS,OFFSHORE,OIL,PLATEAU PRODUCTION,SALT,1662.9,PALEOGENE-NEOGENE,SANDSTONE,45.0,45.0,28.5,2000.0,933.9933993399341,0.35,,
MASTAKH,KYZYLSYR,RUSSIA,FORMER SOVIET UNION,SIBERIAN EASTERN,TRANSPRESSION,63.75,124.0,YAKUTGASPROM,ONSHORE,GAS,DECLINING PRODUCTION,PASSIVE MARGIN,1688.1,JURASSIC,SANDSTONE,270.0,6.9,20.0,95.0,766.9376693766937,,,
MATZEN,HAUPTDOLOMITE (SCHONKIRCHEN UBERTIEF),AUSTRIA,EUROPE,VIENNA,COMPRESSION,48.3942,16.7161,OMV,ONSHORE,GAS,MATURE PRODUCTION,THRUST,4626.0,TRIASSIC,DOLOMITE,885.9,295.2,3.8,2.0,,,,
MATZEN,MATZEN SAND,AUSTRIA,EUROPE,VIENNA,,48.3942,16.7161,OMV,ONSHORE,OIL,MATURE PRODUCTION,RIFT,1215.0,NEOGENE,SANDSTONE,49.2,16.8,,1400.0,915.8576051779935,0.6,,
MAXI,SHAHEJIE (BANQIAO),CHINA,FAR EAST,BOHAI,EXTENSION,38.7,117.53,PETROCHINA,ONSHORE,OIL,NEARLY DEPLETED,RIFT,3727.5,PALEOGENE,SANDSTONE,226.5,24.9,13.6,11.0,844.776119402985,0.43,,
MAYDAN MAHZAM,ARAB C,QATAR,MIDDLE EAST,RUB AL KHALI,GRAVITY,25.6,52.55,QATAR PETROLEUM,OFFSHORE,OIL,REJUVENATING,SALT,1998.3,JURASSIC,DOLOMITE,24.0,16.5,25.0,600.0,834.8082595870206,0.44,,
MAYDAN MAHZAM,ARAB D,QATAR,MIDDLE EAST,RUB AL KHALI,GRAVITY,25.6,52.55,QATAR PETROLEUM,OFFSHORE,OIL,REJUVENATING,SALT,2026.5,JURASSIC,LIMESTONE,39.0,36.0,25.0,500.0,834.8082595870206,0.44,,
MAYSDORF,UPPER MINNELUSA (A SAND),USA,NORTH AMERICA,POWDER RIVER,,44.0413,-105.4063,BOWDEN ENERGY /DUNCAN OIL,ONSHORE,OIL,NEARLY DEPLETED,FORELAND,3166.5,PERMIAN,SANDSTONE,30.0,6.3,,155.0,825.072886297376,0.38,,
MCALLEN RANCH,LOWER VICKSBURG,USA,NORTH AMERICA,GULF OF MEXICO NORTHERN ONSHORE,GRAVITY,26.6226,-98.3153,SHELL,ONSHORE,GAS,MATURE PRODUCTION,DELTA,2820.0,PALEOGENE,SANDSTONE,90.0,42.0,16.0,0.6,,,,0.5
MCARTHUR RIVER,HEMLOCK CONGLOMERATE,USA,NORTH AMERICA,COOK INLET,INVERSION,60.8399,-151.6153,CHEVRON,OFFSHORE,OIL,NEARLY DEPLETED,INVERSION,2634.0,PALEOGENE,CONGLOMERATE,150.0,87.0,11.0,125.0,854.9848942598187,0.42,,
MCELROY,GRAYBURG,USA,NORTH AMERICA,PERMIAN,COMPRESSION,31.4289,-102.3099,CHEVRON,ONSHORE,OIL,NEARLY DEPLETED,FORELAND,885.0,PERMIAN,DOLOMITE,120.0,30.0,9.0,5.0,865.4434250764525,0.2,,
MEANS,SAN ANDRES,USA,NORTH AMERICA,PERMIAN,COMPRESSION,32.5066,-102.5313,EXXONMOBIL,ONSHORE,OIL,NEARLY DEPLETED,FORELAND,1275.0,PERMIAN,DOLOMITE,71.1,45.0,10.0,10.0,881.619937694704,0.51,,
MEDICINE HAT,MEDICINE HAT (A POOL),CANADA,NORTH AMERICA,WILLISTON,COMPRESSION,50.0375,-110.6857,NUMEROUS,ONSHORE,GAS,DECLINING PRODUCTION,INTRACRATONIC,391.5,CRETACEOUS,SILTSTONE,9.0,3.2,20.0,2.0,,,,0.825
MEDICINE RIVER,J2 SANDSTONE,CANADA,NORTH AMERICA,WESTERN CANADA,COMPRESSION,51.8,-114.1,CRESTAR ENERGY,ONSHORE,OIL,PLATEAU PRODUCTION,FORELAND,2064.0,JURASSIC,SANDSTONE,33.6,18.9,14.5,64.2,892.7444794952681,0.3,,
MEDICINE RIVER,PEKISKO,CANADA,NORTH AMERICA,WESTERN CANADA,,51.8,-114.1,CRESTAR ENERGY,ONSHORE,OIL,DECLINING PRODUCTION,FORELAND,2070.0,CARBONIFEROUS,DOLOMITE,49.5,12.8,,38.0,904.1533546325878,0.172,,
MENE GRANDE,ISNOTU,VENEZUELA,LATIN AMERICA,MARACAIBO,COMPRESSION,9.8228,-70.9198,REPSOL YPF,ONSHORE,OIL,REJUVENATING,FORELAND,331.2,NEOGENE,THINLY-BEDDED SANDSTONE,420.0,30.0,30.0,1000.0,946.4882943143813,0.3,,
MESSLAH,SARIR,LIBYA,AFRICA,SIRT,,27.922,22.4056,LNOC,ONSHORE,OIL,DECLINING PRODUCTION,RIFT,2587.5,CRETACEOUS,SANDSTONE,120.0,25.5,,252.0,841.2604042806183,0.5,,
MESSOYAKH,DOLGAN (POKUR),RUSSIA,FORMER SOVIET UNION,SIBERIAN WESTERN,COMPRESSION,69.185,82.4861,NORILSKGAZPROM,ONSHORE,METHANE HYDRATE,REJUVENATING,INTRACRATONIC,826.8,CRETACEOUS,SANDSTONE,738.0,19.8,25.0,125.0,,,,
MIDALE,CHARLES (MIDALE BEDS),CANADA,NORTH AMERICA,WILLISTON,COMPRESSION,49.4701,-103.4717,APACHE,ONSHORE,OIL,SECOND PLATEAU PRODUTION,INTRACRATONIC,1320.0,CARBONIFEROUS,DOLOMITE,19.2,9.6,20.0,3.5,881.619937694704,0.42,,
MIDGARD,FANGST,NORWAY,EUROPE,MID-NORWAY SHELF,EXTENSION,65.0789,7.4898,STATOILHYDRO,OFFSHORE,GAS,DEVELOPING,RIFT,1944.0,JURASSIC,SANDSTONE,137.7,114.0,27.5,5625.0,806.2678062678062,0.16,0.52,0.72
MILK RIVER GAS POOL,MILK RIVER,CANADA,NORTH AMERICA,WILLISTON,COMPRESSION,50.0688,-111.1423,NUMEROUS,ONSHORE,GAS,UNKNOWN,INTRACRATONIC,295.2,CRETACEOUS,SILTSTONE,75.0,6.0,14.0,1.0,,,,0.65
MILLS RANCH,HUNTON (CHIMNEY HILL-HENRYHOUSE),USA,NORTH AMERICA,ANADARKO,COMPRESSION,35.3676,-100.0793,CHEVRON,ONSHORE,GAS,NEARLY DEPLETED,THRUST,5966.4,SILURIAN,DOLOMITE,279.0,28.2,6.0,7.0,,,,
MINAS,BEKASAP,INDONESIA,FAR EAST,SUMATRA CENTRAL,INVERSION,0.7675,101.4334,CALTEX PACIFIC INDONESIA,ONSHORE,OIL,MATURE PRODUCTION,INVERSION,588.0,NEOGENE,SANDSTONE,180.0,60.0,26.0,500.0,844.776119402985,0.55,,
MISKAR,ABIOD,TUNISIA,AFRICA,PELAGIAN,,34.3856,11.8944,BG,OFFSHORE,GAS,DEVELOPING,RIFT,2763.9,CRETACEOUS,CHALK,73.2,57.9,,1.0,,,,0.4
MISKAR,ALEG (BIRENO),TUNISIA,AFRICA,PELAGIAN,INVERSION,34.3856,11.8944,BG,OFFSHORE,GAS-CONDENSATE,DEVELOPING,RIFT,3210.6,CRETACEOUS,CHALKY LIMESTONE,38.4,14.7,13.0,0.1,,,,0.4
MISKAR,ALEG (R1 INFERIOR),TUNISIA,AFRICA,PELAGIAN,INVERSION,34.3856,11.8944,BG,OFFSHORE,GAS,DEVELOPING,RIFT,2990.1,CRETACEOUS,LIMESTONE,25.5,22.5,14.0,5.0,,,,0.4
MISKAR,ALEG (R1 SUPERIOR),TUNISIA,AFRICA,PELAGIAN,INVERSION,34.3856,11.8944,BG,OFFSHORE,GAS,DEVELOPING,RIFT,2916.3,CRETACEOUS,CHALKY LIMESTONE,66.9,7.8,11.0,0.1,,,,0.4
MITSUE,WATT MOUNTAIN (GILWOOD A),CANADA,NORTH AMERICA,WESTERN CANADA,COMPRESSION,55.1141,-114.4722,CHEVRON,ONSHORE,OIL,DECLINING PRODUCTION,FORELAND,1710.0,DEVONIAN,SANDSTONE,24.0,3.9,13.0,230.0,820.2898550724638,0.46,,
MOONIE,PRECIPICE,AUSTRALIA,FAR EAST,SURAT,,-27.734,150.21,SANTOS,ONSHORE,OIL,NEARLY DEPLETED,FORELAND,1706.4,JURASSIC,SANDSTONE,75.0,13.8,,460.0,806.2678062678062,0.41,,
MOXA ARCH-LA BARGE,FRONTIER (TIP TOP FIELD),USA,NORTH AMERICA,GREATER GREEN RIVER,COMPRESSION,41.6119,-110.2,NUMEROUS,ONSHORE,GAS,DECLINING PRODUCTION,FORELAND,2100.0,CRETACEOUS,SANDSTONE,330.0,27.0,13.0,0.1,766.9376693766937,,,
MURAVLENKOV,MEGION,RUSSIA,FORMER SOVIET UNION,SIBERIAN WESTERN,COMPRESSION,63.99,74.95,SIBNEFT (MURAVLENKOVSKNEFT),ONSHORE,OIL,DECLINING PRODUCTION,INTRACRATONIC,2519.7,CRETACEOUS,SANDSTONE,442.8,30.6,18.5,45.0,854.9848942598187,0.28,,
MURCHISON,BRENT,UK /NORWAY,EUROPE,NORTH SEA NORTHERN,EXTENSION,61.3833,1.75,CNR,OFFSHORE,OIL,NEARLY DEPLETED,RIFT,2696.4,JURASSIC,SANDSTONE,127.5,90.0,22.0,750.0,839.7626112759643,0.43,,
NASSER,ZELTEN,LIBYA,AFRICA,SIRT,EXTENSION,28.9056,19.7983,LNOC,ONSHORE,OIL,MATURE PRODUCTION,RIFT,1629.0,PALEOGENE,LIMESTONE,90.0,36.0,22.0,1500.0,829.9120234604105,,,
NATIH,NATIH,OMAN,MIDDLE EAST,FAHUD SALT,COMPRESSION,22.4333,56.7167,PDO,ONSHORE,OIL,MATURE PRODUCTION,SALT,729.9,CRETACEOUS,CHALKY LIMESTONE,397.2,131.7,19.0,2.6,876.1609907120743,0.2,,
NATUNA L,TERUMBU,INDONESIA,FAR EAST,NATUNA EAST/SARAWAK,EXTENSION,5.4658,109.7833,EXXONMOBIL,OFFSHORE,CARBON DIOXIDE,UNDEVELOPED,BACKARC,2465.4,NEOGENE,LIMESTONE,1600.5,892.8,15.0,100.0,,,,0.75
NEWBURG,CHARLES,USA,NORTH AMERICA,WILLISTON,COMPRESSION,48.7502,-100.9196,AMERADA HESS,ONSHORE,OIL,MATURE PRODUCTION,INTRACRATONIC,993.0,CARBONIFEROUS,DOLOMITIC LIMESTONE,36.0,5.3,10.0,2.6,842.2619047619047,0.33,,
NEWBURG,SPEARFISH,USA,NORTH AMERICA,WILLISTON,COMPRESSION,48.7502,-100.9196,AMERADA HESS,ONSHORE,OIL,MATURE PRODUCTION,INTRACRATONIC,993.0,TRIASSIC,SANDSTONE,36.0,5.3,14.0,13.5,842.2619047619047,0.33,,
NIAGARAN REEF TREND,NIAGARA (GUELPH),USA,NORTH AMERICA,MICHIGAN,STRIKE-SLIP,42.6984,-82.5399,NUMEROUS,ONSHORE,OIL,DECLINING PRODUCTION,INTRACRATONIC,780.0,SILURIAN,DOLOMITIC LIMESTONE,120.0,30.0,8.0,8.0,779.6143250688706,0.21,,0.82
NINIAN,BRENT,UK,EUROPE,NORTH SEA NORTHERN,EXTENSION,60.8333,1.4333,CNR,OFFSHORE,OIL,MATURE PRODUCTION,RIFT,2544.0,JURASSIC,SANDSTONE,90.0,60.0,20.0,500.0,844.776119402985,0.48,,
NIPISI,WATT MOUNTAIN (GILWOOD A POOL),CANADA,NORTH AMERICA,WESTERN CANADA,COMPRESSION,55.8199,-115.1317,BP,ONSHORE,OIL,MATURE PRODUCTION,FORELAND,1650.0,DEVONIAN,SANDSTONE,30.0,4.2,13.5,250.0,819.8146002317498,0.47,,
NORMAN WELLS,RAMPARTS (KEE SCARP),CANADA,NORTH AMERICA,WESTERN CANADA,,65.2629,-126.8559,EXXONMOBIL,ONSHORE,OIL,DECLINING PRODUCTION,THRUST,344.4,DEVONIAN,CHALKY LIMESTONE,127.5,72.9,,4.0,834.8082595870206,0.4,,
NORTH ANDERSON RANCH,HUECO,USA,NORTH AMERICA,PERMIAN,COMPRESSION,32.9752,-103.7292,GULF OIL,ONSHORE,OIL,NEARLY DEPLETED,FORELAND,2880.0,PERMIAN,LIMESTONE,36.0,10.5,9.0,124.0,829.9120234604105,,,
NORTH BURBANK,BURBANK,USA,NORTH AMERICA,CHEROKEE,INVERSION,36.7297,-96.7333,CONOCOPHILLIPS,ONSHORE,OIL,UNKNOWN,FORELAND,906.0,CARBONIFEROUS,SANDSTONE,27.0,14.1,16.8,50.0,827.485380116959,0.46,,
NORTH HAYNESVILLE,SMACKOVER,USA,NORTH AMERICA,GULF OF MEXICO NORTHERN ONSHORE,GRAVITY,32.982,-93.1071,MARATHON /DNS,ONSHORE,OIL,UNKNOWN,SALT,3668.7,JURASSIC,LIMESTONE,75.0,11.4,11.0,61.0,771.1171662125341,0.5,,
NORTH ROBERTSON,CLEARFORK-GLORIETA,USA,NORTH AMERICA,PERMIAN,COMPRESSION,32.66,-102.6875,TOTAL,ONSHORE,OIL,SECOND PLATEAU PRODUTION,FORELAND,1740.0,PERMIAN,DOLOMITE,390.0,120.0,4.0,0.4,844.776119402985,0.15,,
NORTH SABINE LAKE,LOWER HACKBERRY (FRIO),USA,NORTH AMERICA,GULF OF MEXICO NORTHERN ONSHORE,GRAVITY,29.9587,-93.7991,HILLCORP ENERGY,ONSHORE,GAS-CONDENSATE,MATURE PRODUCTION,DELTA,3282.0,PALEOGENE,SHALY SANDSTONE,79.5,39.0,26.0,425.0,758.7131367292225,,,
NORTH WARD-ESTES,YATES,USA,NORTH AMERICA,PERMIAN,COMPRESSION,31.5777,-102.9918,WHITING OIL and GAS,ONSHORE,OIL,REJUVENATING,FORELAND,780.0,PERMIAN,SILTSTONE,90.0,30.0,11.0,16.0,839.7626112759643,0.38,,
NORTHEAST CEDARDALE,HUNTON (HARAGAN),USA,NORTH AMERICA,ANADARKO,COMPRESSION,36.4227,-98.9165,LOUIS DREYFUS NATURAL GAS,ONSHORE,GAS,MATURE PRODUCTION,FORELAND,2482.5,DEVONIAN,DOLOMITE,75.0,11.4,16.0,20.0,746.7018469656992,,,
NUMBI,VERMELHA,ANGOLA,AFRICA,CONGO,GRAVITY,-5.3099,11.9154,CHEVRON,OFFSHORE,OIL,PLATEAU PRODUCTION,PASSIVE MARGIN,919.5,CRETACEOUS,SANDSTONE,135.0,45.0,24.0,500.0,854.9848942598187,0.46,,
OCTOBER,NUBIA (MAIN FIELD AREA),EGYPT,AFRICA,GULF OF SUEZ,EXTENSION,28.8367,33.0859,GUPCO,OFFSHORE,OIL,DECLINING PRODUCTION,SUB-SALT,3116.4,PALEOZOIC-CRETACEOUS,SANDSTONE,690.0,135.0,17.0,236.0,892.7444794952681,0.45,,
ODOPTU-MORE,LOWER NUTOVO (XII-XX IV),RUSSIA,FORMER SOVIET UNION,NORTH SAKHALIN,STRIKE-SLIP,53.1333,143.4667,EXXONMOBIL /SMNG,OFFSHORE,OIL,DEVELOPING,INVERSION,1056.0,NEOGENE,SANDSTONE,738.0,66.0,20.0,45.0,839.7626112759643,0.31,,0.9
ORENBURG,UNNAMED,RUSSIA,FORMER SOVIET UNION,VOLGA-URAL,COMPRESSION,51.6289,54.8161,ORENBURGGAZPROM,ONSHORE,GAS,UNKNOWN,SUB-SALT,1269.6,CARBONIFEROUS-PERMIAN,LIMESTONE,408.0,168.9,11.0,2.0,839.7626112759643,,,
ORIBI,14A SEQUENCE,SOUTH AFRICA,AFRICA,BREDASDORP,EXTENSION,-35.233000000000004,21.51,PETROSA,OFFSHORE,OIL,PLATEAU PRODUCTION,RIFT,2191.8,CRETACEOUS,SANDSTONE,34.5,29.4,18.0,500.0,815.5619596541786,0.49,,
ORMEN LANGE,JORSALFARE-VALE (EGGA),NORWAY,EUROPE,MID-NORWAY SHELF,INVERSION,63.541,5.3375,STATOILHYDRO,OFFSHORE,GAS,DEVELOPING,INVERSION,1734.0,CRETACEOUS-PALEOGENE,SANDSTONE,114.0,34.5,29.0,1000.0,,,,0.78
OROCUAL,CARAPITA,VENEZUELA,LATIN AMERICA,EASTERN VENEZUELA,COMPRESSION,9.8667,-63.3333,PDVSA,ONSHORE,OIL,CONTINUING DEVELOPMENT,THRUST,3045.0,NEOGENE,SANDSTONE,90.0,48.0,13.0,35.0,849.8498498498498,0.34,,
OROCUAL,SAN JUAN,VENEZUELA,LATIN AMERICA,EASTERN VENEZUELA,COMPRESSION,9.8667,-63.3333,PDVSA,ONSHORE,OIL,DECLINING PRODUCTION,THRUST,3765.0,CRETACEOUS-PALEOGENE,SANDSTONE,300.0,195.0,6.0,5.0,839.7626112759643,,,
PALM VALLEY,PACOOTA AND STAIRWAY,AUSTRALIA,FAR EAST,AMADEUS,COMPRESSION,-24.0003,132.7698,MAGELLAN PETROLEUM,ONSHORE,GAS,DECLINING PRODUCTION,INTRACRATONIC,1696.8,ORDOVICIAN,SANDSTONE,690.0,52.2,4.0,0.0,,,,0.88
PAMPO,MACAE (QUISSAMA),BRAZIL,LATIN AMERICA,CAMPOS,GRAVITY,-22.788,-40.7674,PETROBRAS,OFFSHORE,OIL,DECLINING PRODUCTION,SALT,1734.3,CRETACEOUS,LIMESTONE,195.0,84.0,25.0,800.0,933.9933993399341,0.19,,
PANNA,BASSEIN (ZONE B),INDIA,FAR EAST,BOMBAY OFFSHORE,,19.297,71.979,ONGC /BG /RELIANCE,OFFSHORE,OIL,PLATEAU PRODUCTION,RIFT,1663.8,PALEOGENE,LIMESTONE,255.9,24.6,,10.0,834.8082595870206,0.2,,
PARENTIS,UNNAMED,FRANCE,EUROPE,AQUITAINE,COMPRESSION,44.3367,-1.0959,VERMILION,ONSHORE-OFFSHORE,OIL,NEARLY DEPLETED,FORELAND,1965.0,CRETACEOUS,DOLOMITE,390.0,60.0,11.0,10.0,860.1823708206687,0.39,,
PATRICK DRAW,ALMOND,USA,NORTH AMERICA,GREATER GREEN RIVER,COMPRESSION,41.6148,-108.5007,ANADARKO,ONSHORE,OIL,REJUVENATING,FORELAND,1290.0,CRETACEOUS,SANDSTONE,21.0,6.0,20.0,36.0,815.5619596541786,0.58,,
PEACE RIVER,GETHING-OSTRACOD-BLUESKY,CANADA,NORTH AMERICA,WESTERN CANADA,COMPRESSION,56.2683,-117.2815,SHELL,ONSHORE,BITUMEN,CONTINUING DEVELOPMENT,FORELAND,450.0,CRETACEOUS,SANDSTONE,30.0,24.6,28.0,440.0,1017.985611510791,,,
PECOS SLOPE,ABO,USA,NORTH AMERICA,PERMIAN,COMPRESSION,33.5606,-104.2916,YATES PETROLEUM AND OTHERS,ONSHORE,GAS,MATURE PRODUCTION,FORELAND,682.5,PERMIAN,SANDSTONE,97.5,9.0,13.0,0.0,764.8648648648649,,,0.77
PEEJAY,HALFWAY,CANADA,NORTH AMERICA,WESTERN CANADA,COMPRESSION,56.8646,-120.4777,CANADIAN NATURAL RESOURCES,ONSHORE,OIL,NEARLY DEPLETED,FORELAND,1140.0,TRIASSIC,SANDSTONE,25.5,3.8,12.0,120.0,844.776119402985,0.38,,
PEMBINA,CARDIUM (PEMBINA RIVER),CANADA,NORTH AMERICA,WESTERN CANADA,COMPRESSION,53.1361,-115.1188,NUMEROUS,ONSHORE,OIL,MATURE PRODUCTION,FORELAND,1200.0,CRETACEOUS,SANDSTONE,15.0,5.8,13.9,24.0,839.7626112759643,0.18,,
PENAL-BARRACKPORE,HERRERA,TRINIDAD AND TOBAGO,LATIN AMERICA,EASTERN VENEZUELA,STRIKE-SLIP,10.1833,-61.4,PETROTRIN,ONSHORE,OIL,NEARLY DEPLETED,THRUST,630.0,NEOGENE,SANDSTONE,600.0,300.0,25.0,100.0,904.1533546325878,0.14,,
PENWELL,SAN ANDRES,USA,NORTH AMERICA,PERMIAN,COMPRESSION,31.7333,-102.5625,CHEVRON /CONOCOPHILLIPS /TOTAL,ONSHORE,OIL,DECLINING PRODUCTION,FORELAND,975.0,PERMIAN,DOLOMITE,120.0,35.4,11.0,3.0,829.9120234604105,0.4,,
PIPER,PIPER-SGIATH,UK,EUROPE,NORTH SEA CENTRAL,,58.4589,0.2708,TOTAL,OFFSHORE,OIL,MATURE PRODUCTION,RIFT,2032.8,JURASSIC,SANDSTONE,90.0,60.0,,4000.0,839.7626112759643,0.8,,
POKACHEV,MEGION (BV8),RUSSIA,FORMER SOVIET UNION,SIBERIAN WESTERN,COMPRESSION,61.583,75.1833,SURGUTNEFTEGAS,ONSHORE,OIL,DECLINING PRODUCTION,INTRACRATONIC,2352.3,CRETACEOUS,SANDSTONE,22.5,7.2,20.0,130.0,865.4434250764525,0.55,,
POKACHEV,VARTOV (BV6),RUSSIA,FORMER SOVIET UNION,SIBERIAN WESTERN,COMPRESSION,61.583,75.1833,SURGUTNEFTEGAS,ONSHORE,OIL,DECLINING PRODUCTION,INTRACRATONIC,2258.7,CRETACEOUS,SANDSTONE,15.6,5.7,20.0,170.0,865.4434250764525,0.52,,
POKACHEV,VARTOV-ALYM (AV1-2),RUSSIA,FORMER SOVIET UNION,SIBERIAN WESTERN,COMPRESSION,61.583,75.1833,SURGUTNEFTEGAS,ONSHORE,OIL,DECLINING PRODUCTION,INTRACRATONIC,1809.0,CRETACEOUS,SANDSTONE,20.7,8.1,22.0,108.0,865.4434250764525,0.47,,
PORT ACRES,LOWER HACKBERRY (FRIO),USA,NORTH AMERICA,GULF OF MEXICO NORTHERN ONSHORE,GRAVITY,29.88,-94.0,PAN AMERICAN PETROLEUM,ONSHORE,GAS-CONDENSATE,ABANDONED,DELTA,3112.8,PALEOGENE,SHALY SANDSTONE,120.0,7.8,29.0,275.0,777.8999450247388,,,0.81
PRIOB,ACHIMOV-VARTOV,RUSSIA,FORMER SOVIET UNION,SIBERIAN WESTERN,COMPRESSION,61.13,70.46,YUGANSKNEFTEGAS /SIBNEFT /SURGUTNEFTEGAS,ONSHORE,OIL,CONTINUING DEVELOPMENT,INTRACRATONIC,2303.1,CRETACEOUS,SANDSTONE,390.0,42.0,19.0,3.6,870.7692307692307,0.29,,
PRIRAZLOM,UNNAMED (UNITS I-II),RUSSIA,FORMER SOVIET UNION,TIMAN-PECHORA,COMPRESSION,69.2833,57.25,SERVMORNEFTEGAZ,OFFSHORE,OIL,UNDEVELOPED,INVERSION,2258.7,CARBONIFEROUS-PERMIAN,LIMESTONE,198.0,45.0,19.0,120.0,909.967845659164,0.34,,
PROVOST,VIKING,CANADA,NORTH AMERICA,WESTERN CANADA,,52.2022,-110.3508,NUMEROUS,ONSHORE,GAS,DECLINING PRODUCTION,FORELAND,720.0,CRETACEOUS,SANDSTONE,21.0,1.7,,82.0,,,,0.7
PROVOST,VIKING (C POOL),CANADA,NORTH AMERICA,WESTERN CANADA,COMPRESSION,52.2022,-110.3508,NUMEROUS,ONSHORE,OIL,NEARLY DEPLETED,FORELAND,885.0,CRETACEOUS,LOW-RESISTIVITY SANDSTONE,21.0,1.2,25.0,170.0,854.9848942598187,0.13,,
QARUN,LOWER BAHARIYA,EGYPT,AFRICA,GINDI,INVERSION,29.783,30.529,QARUN PETROLEUM,ONSHORE,OIL,DEVELOPING,INVERSION,2535.0,CRETACEOUS,LOW-RESISTIVITY SANDSTONE,43.5,13.5,18.0,700.0,825.072886297376,0.35,,
QATIF,ARAB C,SAUDI ARABIA,MIDDLE EAST,THE GULF,COMPRESSION,26.5333,49.975,SAUDI ARAMCO,ONSHORE-OFFSHORE,OIL,TEMPORARILY SHUT-IN,FORELAND,2070.0,JURASSIC,LIMESTONE,30.0,24.3,18.0,202.0,870.7692307692307,0.45,,
QATIF,ARAB D,SAUDI ARABIA,MIDDLE EAST,THE GULF,COMPRESSION,26.5333,49.975,SAUDI ARAMCO,ONSHORE-OFFSHORE,OIL,TEMPORARILY SHUT-IN,FORELAND,2130.0,JURASSIC,LIMESTONE,30.0,24.9,15.0,310.0,834.8082595870206,0.45,,
QUIRIQUIRE,QUIRIQUIRE,VENEZUELA,LATIN AMERICA,EASTERN VENEZUELA,COMPRESSION,10.0,-63.1667,REPSOL YPF /MAXUS,ONSHORE,OIL,REJUVENATING,FORELAND,483.9,NEOGENE,SANDSTONE,480.0,69.0,20.0,450.0,946.4882943143813,0.2,,
QUITMAN,PALUXY,USA,NORTH AMERICA,GULF OF MEXICO NORTHERN ONSHORE,GRAVITY,32.8253,-95.4951,NUMEROUS,ONSHORE,OIL,NEARLY DEPLETED,SALT,1816.8,CRETACEOUS,SANDSTONE,120.0,10.5,22.0,600.0,821.7189314750291,0.5,,
RAINBOW TREND,UPPER KEG RIVER-MUSKEG (RAINBOW A),CANADA,NORTH AMERICA,WESTERN CANADA,COMPRESSION,58.5052,-119.2926,NUMEROUS,ONSHORE,OIL,DECLINING PRODUCTION,FORELAND,1759.8,DEVONIAN,LIMESTONE,226.8,120.0,11.8,37.0,825.072886297376,0.48,,
RAMA,BATURAJA,INDONESIA,FAR EAST,SUNDA,INVERSION,-5.4307,106.2889,CNOOC /REPSOL YPF,OFFSHORE,OIL,MATURE PRODUCTION,BACKARC,817.5,NEOGENE,LIMESTONE,180.0,25.8,24.5,10.0,876.1609907120743,0.25,,
RAMADAN,NUBIA C,EGYPT,AFRICA,GULF OF SUEZ,EXTENSION,28.2919,33.3144,GUPCO,OFFSHORE,OIL,MATURE PRODUCTION,SUB-SALT,3210.0,PALEOZOIC,SANDSTONE,390.0,225.0,15.0,100.0,871.8422674060381,,,
RAMAN,MARDIN-RAMAN,TURKEY,MIDDLE EAST,TAURUS/ZAGROS,COMPRESSION,37.7642,41.3083,TPAO,ONSHORE,OIL,PLATEAU PRODUCTION,THRUST,1107.3,CRETACEOUS,LIMESTONE,52.5,34.5,14.0,10.0,946.4882943143813,0.14,,
RAMBA,BATURAJA,INDONESIA,FAR EAST,SUMATRA SOUTH,INVERSION,-2.6544,104.1461,ASAMERA,ONSHORE,OIL,DECLINING PRODUCTION,INVERSION,795.0,NEOGENE,LIMESTONE,49.2,16.2,17.0,2000.0,834.8082595870206,,,
RANGELY,WEBER,USA,NORTH AMERICA,UINTA/PICEANCE,COMPRESSION,40.1135,-108.8829,CHEVRON,ONSHORE,OIL,DECLINING PRODUCTION,THRUST,1650.0,CARBONIFEROUS-PERMIAN,SANDSTONE,157.8,56.7,12.0,8.0,854.9848942598187,0.49,,
RANTAU,KEUTAPANG-SEURULA,INDONESIA,FAR EAST,SUMATRA NORTH,,4.3503,98.0957,PERTAMINA/JAPEX,ONSHORE,OIL,MATURE PRODUCTION,BACKARC,276.0,NEOGENE,SANDSTONE,600.0,33.0,,120.0,775.3424657534247,0.38,,
RAS BUDRAN,NUBIAN,EGYPT,AFRICA,GULF OF SUEZ,EXTENSION,28.9687,33.1283,SUCO,OFFSHORE,OIL,DECLINING PRODUCTION,SUB-SALT,3150.0,CARBONIFEROUS-CRETACEOUS,SANDSTONE,900.0,480.0,12.0,45.0,915.8576051779935,0.44,,
RAVEN CREEK,UPPER MINNELUSA (B SAND),USA,NORTH AMERICA,POWDER RIVER,COMPRESSION,44.1497,-105.1171,CITATION OIL and GAS,ONSHORE,OIL,MATURE PRODUCTION,FORELAND,2483.4,PERMIAN,SANDSTONE,30.0,11.1,12.0,50.0,862.8048780487804,,,
REDWATER,LEDUC,CANADA,NORTH AMERICA,WESTERN CANADA,COMPRESSION,53.65,-113.3333,IMPERIAL OIL RESOURCES,ONSHORE,OIL,NEARLY DEPLETED,FORELAND,924.0,DEVONIAN,LIMESTONE,240.0,30.0,8.0,100.0,849.8498498498498,,,
RENQIU,WUMISHAN,CHINA,FAR EAST,BOHAI,,38.6265,116.0234,PETROCHINA,ONSHORE,OIL,NEARLY DEPLETED,RIFT,2558.1,PROTEROZOIC,DOLOMITE,2304.0,164.4,,1.0,889.937106918239,0.32,,
RHOURDE EL BAGUEL,MENKEL /HASSAOUNA,ALGERIA,AFRICA,GHADAMES,COMPRESSION,31.39,6.9481,SONATRACH,ONSHORE,OIL,REJUVENATING,INTRACRATONIC,2460.0,CAMBRIAN,SANDSTONE,540.0,270.6,9.0,5.0,806.2678062678062,0.32,,
RIMA,AL KHLATA,OMAN,MIDDLE EAST,SOUTH OMAN SALT,GRAVITY,18.8786,56.3146,PDO,ONSHORE,OIL,UNKNOWN,SALT,891.9,CARBONIFEROUS-PERMIAN,SANDSTONE,75.0,30.0,25.0,500.0,860.1823708206687,0.46,,
RINCON,FRIO-VICKSBURG,USA,NORTH AMERICA,GULF OF MEXICO NORTHERN ONSHORE,GRAVITY,26.5307,-98.5866,CONOCOPHILLIPS,ONSHORE,OIL,MATURE PRODUCTION,DELTA,1020.0,PALEOGENE,SANDSTONE,300.0,45.0,26.0,80.0,815.5619596541786,,,
ROMASHKINO,PASHIY (D-1 POOL),RUSSIA,FORMER SOVIET UNION,VOLGA-URAL,COMPRESSION,55.3433,52.8447,TATNEFT,ONSHORE,OIL,MATURE PRODUCTION,FORELAND,1638.9,DEVONIAN,SANDSTONE,34.5,8.7,19.0,375.0,806.2678062678062,0.48,,
RONCADOR,CARAPEBUS,BRAZIL,LATIN AMERICA,CAMPOS,GRAVITY,-21.9449,-39.7171,PETROBRAS,OFFSHORE,OIL,DEVELOPING,SALT,1050.0,CRETACEOUS,SANDSTONE,150.0,156.0,30.0,1000.0,870.7692307692307,0.3,,
ROSEVEAR,SWAN HILLS,CANADA,NORTH AMERICA,WESTERN CANADA,COMPRESSION,53.7056,-116.1303,SHELL,ONSHORE,GAS,NEARLY DEPLETED,FORELAND,3082.8,DEVONIAN,DOLOMITE,53.4,17.4,9.0,360.0,,,,0.88
ROURKE GAP,UPPER MINNELUSA (C SAND),USA,NORTH AMERICA,POWDER RIVER,COMPRESSION,44.1578,-105.4258,WILDFIRE PARTNERS INC,ONSHORE,OIL,NEARLY DEPLETED,FORELAND,3067.5,PERMIAN,SANDSTONE,30.0,7.5,11.3,97.0,876.1609907120743,0.45,,
RULISON,MESAVERDE (WILLIAMS FORK-ILES),USA,NORTH AMERICA,PICEANCE,,39.4778,-107.833,BARRETT RESOURCES,ONSHORE,GAS,PLATEAU PRODUCTION,FORELAND,1650.0,CRETACEOUS,SANDSTONE,1140.0,89.1,,0.0,,,,0.7
SACHA,HOLLIN,ECUADOR,LATIN AMERICA,ORIENTE,,-0.3292,-76.8867,PETROECUADOR (PETROPRODUCTION),ONSHORE,OIL,DECLINING PRODUCTION,INVERSION,2805.0,CRETACEOUS,LOW-RESISTIVITY SANDSTONE,111.0,11.7,,400.0,878.8819875776397,0.33,,
SACHA,NAPO T-U SANDS,ECUADOR,LATIN AMERICA,ORIENTE,INVERSION,-0.3292,-76.8867,PETROECUADOR (PETROPRODUCTION),ONSHORE,OIL,DECLINING PRODUCTION,INVERSION,2682.0,CRETACEOUS,LOW-RESISTIVITY SANDSTONE,96.0,13.8,16.0,400.0,881.619937694704,0.33,,
SAIH RAWL,BARIK,OMAN,MIDDLE EAST,GHABA SALT,COMPRESSION,21.318,56.7018,PDO,ONSHORE,GAS-CONDENSATE,DEVELOPING,SALT,4380.0,CAMBRIAN-ORDOVICIAN,SANDSTONE,210.0,135.0,9.0,7.0,,,0.4,0.7
SAIH RAWL,SHUAIBA,OMAN,MIDDLE EAST,GHABA SALT,COMPRESSION,21.318,56.7018,PDO,ONSHORE,OIL,PLATEAU PRODUCTION,SALT,1343.4,CRETACEOUS,CHALKY LIMESTONE,60.0,33.0,27.0,7.0,854.9848942598187,0.43,,
SALT CREEK,SECOND WALL CREEK SAND,USA,NORTH AMERICA,POWDER RIVER,COMPRESSION,43.3984,-106.2921,HOWELL PETROLEUM AND OTHERS,ONSHORE,OIL,MATURE PRODUCTION,FORELAND,390.0,CRETACEOUS,SANDSTONE,30.0,21.3,19.0,52.0,839.7626112759643,0.5,,
SAMARANG,STAGES IVC-IVF,MALAYSIA,FAR EAST,SABAH,GRAVITY,5.6284,114.8906,PETRONAS,OFFSHORE,OIL,DECLINING PRODUCTION,DELTA,354.0,NEOGENE,SANDSTONE,2021.7,150.0,23.0,250.0,839.7626112759643,0.54,,
SANAND,KALOL (PAYZONE K-III),INDIA,FAR EAST,CAMBAY,INVERSION,23.1,72.417,ONGC,ONSHORE,OIL,SECOND PLATEAU PRODUTION,RIFT,1181.7,PALEOGENE,SANDSTONE,123.0,6.0,28.0,1000.0,921.8241042345277,0.25,,
SANTHAL,KALOL,INDIA,FAR EAST,CAMBAY,INVERSION,23.409,72.202,ONGC,ONSHORE,OIL,REJUVENATING,RIFT,871.8,PALEOGENE,SANDSTONE,44.4,19.8,28.0,7500.0,952.8619528619529,,,
SATICOY,PICO-SANTA BARBARA,USA,NORTH AMERICA,VENTURA,,34.3169,-119.1149,PXP /IBSEN RESOURCES,ONSHORE,OIL,NEARLY DEPLETED,WRENCH,1500.0,NEOGENE,SANDSTONE,420.0,228.0,,250.0,861.753958587089,,,
SCAPA,VALHALL (SCAPA SANDSTONE),UK,EUROPE,NORTH SEA CENTRAL,EXTENSION,58.427,0.325,TALISMAN,OFFSHORE,OIL,NEARLY DEPLETED,RIFT,2256.9,CRETACEOUS,THINLY-BEDDED SANDSTONE,120.0,29.4,20.0,250.0,862.8048780487804,0.47,,
SCHOONEBEEK-EMLICHHEIM,VLIELAND (BENTHEIM),NETHERLANDS /GERMANY,EUROPE,LOWER SAXONY,INVERSION,52.6634,6.8553,NAM,ONSHORE,OIL,DECLINING PRODUCTION,INVERSION,720.0,CRETACEOUS,SANDSTONE,30.0,21.0,32.0,7000.0,904.1533546325878,,,
SCOTT,SGIATH-PIPER,UK,EUROPE,NORTH SEA CENTRAL,EXTENSION,58.2792,0.2312,NEXEN,OFFSHORE,OIL,DECLINING PRODUCTION,RIFT,2982.0,JURASSIC,SANDSTONE,108.0,87.0,16.0,100.0,844.776119402985,0.465,,
SERANG,BALIKPAPAN (UPPER DELTAIC SEQUENCE),INDONESIA,FAR EAST,KUTAI,INVERSION,-0.1669999999999999,117.67,CHEVRON,OFFSHORE,OIL,MATURE PRODUCTION,BACKARC,1702.5,NEOGENE,SANDSTONE,150.0,54.0,28.0,1628.0,820.2898550724638,0.5,,0.5
SHANSHAN,SANJIANFANG,CHINA,FAR EAST,TURPAN (TURFAN),COMPRESSION,43.05,90.35,PETROCHINA,ONSHORE,OIL,DECLINING PRODUCTION,FORELAND,2755.8,JURASSIC,SANDSTONE,285.3,20.1,12.0,7.9,820.2898550724638,0.26,,
SHATLYK,SHATLYK (SHATLYK EAST),TURKMENISTAN,FORMER SOVIET UNION,AMU DARYA,COMPRESSION,37.39,61.1,TURKMENGAS,ONSHORE,GAS,MATURE PRODUCTION,FORELAND,3300.0,CRETACEOUS,SANDSTONE,44.4,18.9,21.8,222.0,775.3424657534247,,,0.84
SHATLYK,SHATLYK (SHATLYK WEST),TURKMENISTAN,FORMER SOVIET UNION,AMU DARYA,COMPRESSION,37.39,61.1,TURKMENGAS,ONSHORE,GAS,REJUVENATING,FORELAND,3141.0,CRETACEOUS,SANDSTONE,44.4,31.8,21.8,222.0,775.3424657534247,,,0.78
SIDKI,NUBIA,EGYPT,AFRICA,GULF OF SUEZ,,27.998,33.554,GUPCO,OFFSHORE,OIL,MATURE PRODUCTION,RIFT,2737.5,PALEOZOIC-CRETACEOUS,SANDSTONE,255.0,210.0,,60.0,865.4434250764525,0.27,,
SIRIKIT,LAN KRABU,THAILAND,FAR EAST,PHITSANULOK,STRIKE-SLIP,16.63,99.9,SHELL,ONSHORE,OIL,PLATEAU PRODUCTION,WRENCH,1386.9,NEOGENE,SANDSTONE,531.6,78.6,20.0,50.0,829.9120234604105,0.39,,
SITIO GRANDE,TAMABRA,MEXICO,LATIN AMERICA,CHIAPAS-TABASCO,,17.7833,-93.1167,PEMEX,ONSHORE,OIL,NEARLY DEPLETED,WRENCH,3732.0,CRETACEOUS,DOLOMITE,390.0,123.0,,135.0,854.9848942598187,0.32,,
SLAUGHTER,SAN ANDRES,USA,NORTH AMERICA,PERMIAN,COMPRESSION,33.4701,-102.6771,NUMEROUS,ONSHORE,OIL,MATURE PRODUCTION,FORELAND,1530.0,PERMIAN,DOLOMITE,270.0,21.0,12.0,10.0,876.1609907120743,0.45,,
SNAPPER,LATROBE (N-1 UNIT),AUSTRALIA,FAR EAST,GIPPSLAND,INVERSION,-38.2008,148.0136,EXXONMOBIL /BHP BILLITON,OFFSHORE,GAS-CONDENSATE,PLATEAU PRODUCTION,INVERSION,1104.6,PALEOGENE,SANDSTONE,246.0,118.2,24.0,2000.0,792.7170868347339,0.05,,0.63
SNIPE LAKE,SWAN HILLS (BEAVERHILL LAKE POOL),CANADA,NORTH AMERICA,WESTERN CANADA,COMPRESSION,55.1655,-116.7022,POCO PETROLEUM,ONSHORE,OIL,MATURE PRODUCTION,FORELAND,2550.0,DEVONIAN,LIMESTONE,55.5,10.3,6.8,54.0,838.7670420865442,0.35,,
SOUTH BELRIDGE,BELRIDGE DIATOMITE (MONTEREY-ETCHEGOIN),USA,NORTH AMERICA,SAN JOAQUIN,COMPRESSION,35.4368,-119.6788,NUMEROUS,ONSHORE,OIL,PLATEAU PRODUCTION,THRUST,180.0,NEOGENE,DIATOMITE,300.0,270.0,55.0,1.5,892.7444794952681,,,
SOUTH COWDEN,GRAYBURG,USA,NORTH AMERICA,PERMIAN,COMPRESSION,31.749,-102.443,NUMEROUS,ONSHORE,OIL,DECLINING PRODUCTION,FORELAND,1230.0,PERMIAN,DOLOMITE,120.0,27.0,8.8,15.0,852.4096385542168,0.27,,
SOUTH LAKE ARTHUR,FRIO (MIOGYP),USA,NORTH AMERICA,GULF OF MEXICO NORTHERN ONSHORE,,30.0895,-92.6647,NUMEROUS,ONSHORE,GAS,NEARLY DEPLETED,DELTA,4950.0,PALEOGENE,SANDSTONE,180.0,24.6,,100.0,,,,
SOUTH TIMBALIER 295,K SANDS,USA,NORTH AMERICA,GULF OF MEXICO NORTHERN OFFSHORE,GRAVITY,28.1963,-90.5412,APACHE,OFFSHORE,OIL,MATURE PRODUCTION,DELTA,2973.0,NEOGENE,SANDSTONE,180.0,32.1,31.0,500.0,876.1609907120743,0.2,,0.59
SREDNEBOTUOBIN,BOTUOBIN,RUSSIA,FORMER SOVIET UNION,SIBERIAN EASTERN,,61.2339,111.7308,TAS-YUYAKH /YAKUTNEDRA /ALROSA-GAS,ONSHORE,OIL,CONTINUING DEVELOPMENT,INVERSION,1850.4,PROTEROZOIC,SANDSTONE,30.0,6.9,,120.0,865.4434250764525,0.29,,
STAG,M. AUSTRALIS,AUSTRALIA,FAR EAST,CARNARVON,,-20.2886,114.2568,APACHE,OFFSHORE,OIL,DECLINING PRODUCTION,RIFT,617.1,CRETACEOUS,LOW-RESISTIVITY SANDSTONE,21.6,16.8,,2000.0,940.1993355481728,0.42,,
STATFJORD,BRENT,NORWAY /UK,EUROPE,NORTH SEA NORTHERN,EXTENSION,61.2042,1.8287,STATOILHYDRO,OFFSHORE,OIL,DECLINING PRODUCTION,RIFT,2180.1,JURASSIC,SANDSTONE,210.0,147.0,27.0,2500.0,834.8082595870206,0.66,,
STATFJORD,STATFJORD,NORWAY /UK,EUROPE,NORTH SEA NORTHERN,,61.2042,1.8287,STATOILHYDRO,OFFSHORE,OIL,DECLINING PRODUCTION,RIFT,2391.6,TRIASSIC-JURASSIC,SANDSTONE,222.0,108.0,,470.0,825.072886297376,0.7,,
STRACHAN,LEDUC,CANADA,NORTH AMERICA,WESTERN CANADA,COMPRESSION,52.45,-115.4286,BANF AND AQUITAINE,ONSHORE,GAS,NEARLY DEPLETED,FORELAND,3620.4,DEVONIAN,DOLOMITE,270.0,160.5,7.8,11.0,,,,0.67
SUFFIELD,UPPER MANNVILLE (J POOL),CANADA,NORTH AMERICA,WESTERN CANADA,COMPRESSION,50.2851,-111.1427,ALBERTA ENERGY COMPANY /WESTCOAST PETROLEUM,ONSHORE,OIL,DECLINING PRODUCTION,FORELAND,885.0,CRETACEOUS,SANDSTONE,21.8,11.0,27.0,1000.0,972.5085910652922,0.2,,
SUIZHONG 36-1,DONGYING,CHINA,FAR EAST,BOHAI,EXTENSION,40.0172,120.8541,CNOOC,OFFSHORE,OIL,PLATEAU PRODUCTION,RIFT,1277.7,PALEOGENE,SANDSTONE,294.0,48.0,32.0,2600.0,959.3220338983051,0.22,,
SUNNILAND TREND,SUNNILAND LIMESTONE (WEST FELDA FIELD),USA,NORTH AMERICA,FLORIDA/BAHAMAS,EXTENSION,26.2683,-81.3397,NUMEROUS,ONSHORE,OIL,MATURE PRODUCTION,PASSIVE MARGIN,3409.2,CRETACEOUS,LIMESTONE,24.0,5.1,15.0,90.0,898.4126984126984,,,
SUNRISE-TROUBADOUR,PLOVER,AUSTRALIA,FAR EAST,BONAPARTE,EXTENSION,-9.5901,128.1538,WOODSIDE,OFFSHORE,GAS-CONDENSATE,UNDEVELOPED,WRENCH,1998.0,JURASSIC,SANDSTONE,177.3,83.7,14.0,28.0,,,,0.58
TABER NORTH,LOWER MANNVILE (O POOL),CANADA,NORTH AMERICA,WESTERN CANADA,COMPRESSION,49.9191,-112.161,CANADIAN SUPERIOR,ONSHORE,OIL,MATURE PRODUCTION,FORELAND,915.0,CRETACEOUS,SANDSTONE,57.0,5.4,17.0,1000.0,933.9933993399341,0.35,,
TABER NORTH,UPPER MANNVILE (A POOL),CANADA,NORTH AMERICA,WESTERN CANADA,COMPRESSION,49.9191,-112.161,CANADIAN SUPERIOR,ONSHORE,OIL,MATURE PRODUCTION,FORELAND,915.0,CRETACEOUS,SANDSTONE,49.5,10.5,25.0,2000.0,878.8819875776397,0.7,,
TAGLU,REINDEER,CANADA,NORTH AMERICA,BEAUFORT-MACKENZIE,INVERSION,69.3716,-134.8935,IMPERIAL OIL RESOURCES,ONSHORE,GAS,UNDEVELOPED,DELTA,2214.6,PALEOGENE,SANDSTONE,591.0,128.1,17.0,150.0,792.7170868347339,,0.38,0.74
TAKULA,VERMELHA,ANGOLA,AFRICA,CONGO,GRAVITY,-5.2431,11.8072,CHEVRON,OFFSHORE,OIL,PLATEAU PRODUCTION,PASSIVE MARGIN,859.5,CRETACEOUS,SANDSTONE,165.0,52.5,25.0,1000.0,876.1609907120743,0.53,,
TALCO,PALUXY,USA,NORTH AMERICA,GULF OF MEXICO NORTHERN ONSHORE,GRAVITY,33.3625,-95.084,EXXONMOBIL,ONSHORE,OIL,NEARLY DEPLETED,SALT,1217.7,CRETACEOUS,SANDSTONE,82.5,13.2,25.0,2460.0,933.9933993399341,0.35,,
TALIN,TYUMEN (JUK10-JUK11),RUSSIA,FORMER SOVIET UNION,SIBERIAN WESTERN,COMPRESSION,62.0,66.55,TNK-BP,ONSHORE,OIL,DECLINING PRODUCTION,INTRACRATONIC,2519.7,JURASSIC,SANDSTONE,33.0,19.8,15.0,160.0,815.5619596541786,0.31,,
TANGENT,WABAMUM,CANADA,NORTH AMERICA,WESTERN CANADA,EXTENSION,55.9397,-117.5984,NUMAC ENERGY,ONSHORE,OIL,MATURE PRODUCTION,FORELAND,1770.0,DEVONIAN,DOLOMITE,219.0,39.0,5.0,0.3,834.8082595870206,0.17,,
TEAGUE TOWNSITE,COTTON VALLEY LIME,USA,NORTH AMERICA,GULF OF MEXICO NORTHERN ONSHORE,GRAVITY,31.6305,-96.2674,NUMEROUS,ONSHORE,GAS,DECLINING PRODUCTION,SALT,3570.0,JURASSIC,CHALKY LIMESTONE,105.0,21.6,10.0,0.1,771.1171662125341,,,0.76
TEMSAH,SIDI SALIM,EGYPT,AFRICA,NILE DELTA,STRIKE-SLIP,31.84,32.145,IEOC,OFFSHORE,GAS-CONDENSATE,DEVELOPING,WRENCH,3717.0,NEOGENE,SANDSTONE,98.4,39.3,24.5,390.0,792.7170868347339,,,
TERN,BRENT,UK,EUROPE,NORTH SEA NORTHERN,INVERSION,61.2667,0.9167,SHELL,OFFSHORE,OIL,DECLINING PRODUCTION,RIFT,2175.6,JURASSIC,SANDSTONE,81.9,51.0,22.0,350.0,854.9848942598187,0.42,,
THISTLE,BRENT,UK,EUROPE,NORTH SEA NORTHERN,EXTENSION,61.3833,1.55,DNO,OFFSHORE,OIL,NEARLY DEPLETED,RIFT,2391.0,JURASSIC,SANDSTONE,142.5,114.0,24.0,1200.0,832.8428487345498,0.5,,
THREE BAR,THIRTYONE,USA,NORTH AMERICA,PERMIAN,COMPRESSION,32.1661,-102.8024,APACHE /HUMBLE,ONSHORE,OIL,NEARLY DEPLETED,FORELAND,2430.0,DEVONIAN,CHERT,39.0,21.0,15.0,5.0,817.9190751445086,,,
TIA JUANA,LA ROSA-LAGUNILLAS (TIA JUANA ONSHORE AREA),VENEZUELA,LATIN AMERICA,MARACAIBO,COMPRESSION,10.2617,-71.3826,PDVSA,ONSHORE-OFFSHORE,OIL,MATURE PRODUCTION,WRENCH,420.0,NEOGENE,SANDSTONE,150.0,36.0,35.0,1200.0,986.0627177700347,0.23,,
TIN CUP MESA,PARADOX (UPPER ISMAY),USA,NORTH AMERICA,PARADOX,COMPRESSION,37.4211,-109.1333,COCHRANE RESOURCES /PIONEER,ONSHORE,OIL,NEARLY DEPLETED,INTRACRATONIC,1629.0,CARBONIFEROUS,DOLOMITE,18.0,15.0,11.0,2.8,808.1096516276414,0.48,,
TIRRAWARRA,TIRRAWARRA,AUSTRALIA,FAR EAST,COOPER,INVERSION,-27.6764,140.1292,SANTOS,ONSHORE,OIL,DECLINING PRODUCTION,INTRACRATONIC,2828.1,CARBONIFEROUS-PERMIAN,SANDSTONE,34.5,18.0,11.2,1.0,775.3424657534247,0.26,,
TOLON,NEDZHELIN-TAGANDZHIN-MONOM,RUSSIA,FORMER SOVIET UNION,SIBERIAN EASTERN,TRANSPRESSION,63.75,124.0,YAKUTGASPROM,ONSHORE,GAS,UNDEVELOPED,PASSIVE MARGIN,2460.0,TRIASSIC,SANDSTONE,492.0,36.9,17.0,28.0,766.9376693766937,,,
TOMMELITEN GAMMA,TOR-EKOFISK,NORWAY,EUROPE,NORTH SEA CENTRAL,GRAVITY,56.4844,2.9334,STATOILHYDRO,OFFSHORE,GAS-CONDENSATE,ABANDONED,SALT,2888.7,CRETACEOUS-PALEOGENE,CHALK,192.0,165.0,20.0,0.8,792.7170868347339,,0.19,0.46
TOR,TOR-EKOFISK,NORWAY,EUROPE,NORTH SEA CENTRAL,GRAVITY,56.6389,3.3355,CONOCOPHILLIPS,OFFSHORE,OIL,MATURE PRODUCTION,SALT,2856.0,CRETACEOUS-PALEOGENE,CHALK,240.0,147.0,21.0,0.6,834.8082595870206,0.22,,
TUBRIDGI,FLACOURT-BIRDRONG,AUSTRALIA,FAR EAST,CARNARVON,INVERSION,-21.807,114.8181,ORIGIN ENERGY,ONSHORE,GAS,NEARLY DEPLETED,RIFT,484.2,CRETACEOUS,GLAUCONITIC SANDSTONE,12.3,9.3,28.5,1000.0,,,,
TURNER VALLEY,TURNER VALLEY (RUNDLE POOL),CANADA,NORTH AMERICA,WESTERN CANADA,COMPRESSION,50.6704,-114.2665,TALISMAN,ONSHORE,OIL,MATURE PRODUCTION,SUB-THRUST,900.0,CARBONIFEROUS,DOLOMITE,135.0,88.8,8.2,7.0,829.9120234604105,0.22,,0.76
UCHKYR,XIV-1,UZBEKISTAN,FORMER SOVIET UNION,AMU DARYA,,40.1494,62.9906,SREDAZGAZPROM,ONSHORE,GAS,DECLINING PRODUCTION,INVERSION,1523.4,CRETACEOUS,SANDSTONE,29.4,6.9,,65.0,788.3008356545961,,,0.83
UCHKYR,XV-1,UZBEKISTAN,FORMER SOVIET UNION,AMU DARYA,INVERSION,40.1494,62.9906,SREDAZGAZPROM,ONSHORE,GAS,DECLINING PRODUCTION,INVERSION,1632.9,JURASSIC,DOLOMITE,24.6,17.7,16.0,61.0,788.3008356545961,,,0.83
UCHKYR,XV-2,UZBEKISTAN,FORMER SOVIET UNION,AMU DARYA,INVERSION,40.1494,62.9906,SREDAZGAZPROM,ONSHORE,GAS,DECLINING PRODUCTION,INVERSION,1664.4,JURASSIC,DOLOMITE,60.0,6.0,13.0,7.3,788.3008356545961,,,0.83
ULA,ULA,NORWAY,EUROPE,NORTH SEA CENTRAL,INVERSION,57.117,2.833,BP,OFFSHORE,OIL,MATURE PRODUCTION,SALT,3223.2,JURASSIC,SANDSTONE,123.0,113.1,16.5,300.0,829.9120234604105,0.57,,
UPPER VALLEY,KAIBAB-TIMPOWEAP,USA,NORTH AMERICA,KAIPAROWITS,COMPRESSION,37.618,-111.735,CITATION OIL and GAS,ONSHORE,OIL,NEARLY DEPLETED,FORELAND,1905.0,PERMIAN-TRIASSIC,DOLOMITE,75.0,9.0,11.0,21.0,915.8576051779935,0.33,,
URENGOY,POKUR (PK1-6),RUSSIA,FORMER SOVIET UNION,SIBERIAN WESTERN,COMPRESSION,66.0533,76.9497,TYUMENNEFTEGAZ,ONSHORE,GAS,DECLINING PRODUCTION,INTRACRATONIC,1054.2,CRETACEOUS,SANDSTONE,210.0,132.0,30.0,330.0,,,,0.7
URIKHTAU,KT-I,KAZAKHSTAN,FORMER SOVIET UNION,CASPIAN NORTH,,48.4061,57.3269,KAZAKHOIL AKTOBE,ONSHORE,OIL,UNDEVELOPED,SUB-SALT,2487.0,CARBONIFEROUS,DOLOMITIC LIMESTONE,418.2,78.6,,140.0,820.2898550724638,0.24,,0.85
USA,AFONIN,RUSSIA,FORMER SOVIET UNION,TIMAN-PECHORA,,66.2022,57.2928,UNKNOWN,ONSHORE,OIL,MATURE PRODUCTION,INVERSION,2943.9,DEVONIAN,SANDSTONE,74.7,26.7,,120.0,844.776119402985,0.37,,
UZEN,UNITS XIII-XVIII,KAZAKHSTAN,FORMER SOVIET UNION,CASPIAN MIDDLE,INVERSION,43.4175,52.8658,MANGYSTAUMUNAIGAZ,ONSHORE,OIL,MATURE PRODUCTION,INVERSION,1032.0,JURASSIC,SANDSTONE,276.0,130.8,21.0,235.0,854.9848942598187,0.26,,
VACUUM,SAN ANDRES,USA,NORTH AMERICA,PERMIAN,COMPRESSION,32.7919,-103.5855,EXXONMOBIL /CONOCOPHILLIPS /CHEVRON,ONSHORE,OIL,DECLINING PRODUCTION,FORELAND,1275.0,PERMIAN,DOLOMITE,111.0,45.0,12.0,17.0,834.8082595870206,,,
VALDEMAR,TUXEN-SOLA,DENMARK,EUROPE,NORTH SEA CENTRAL,INVERSION,55.8167,4.5667,MAERSK,OFFSHORE,OIL,PLATEAU PRODUCTION,INVERSION,2118.9,CRETACEOUS,CHALK,84.0,75.0,25.0,0.5,829.9120234604105,0.11,,
VALHALL,HOD-TOR,NORWAY,EUROPE,NORTH SEA CENTRAL,INVERSION,56.2619,3.3947,BP,OFFSHORE,OIL,PLATEAU PRODUCTION,INVERSION,2294.4,CRETACEOUS,CHALK,144.0,123.0,35.0,2.0,839.7626112759643,0.45,,
VALHALLA,KASKAPAU (DOE CREEK I POOL),CANADA,NORTH AMERICA,WESTERN CANADA,COMPRESSION,55.4714,-119.3361,PETRO-CANADA AND OTHERS,ONSHORE,OIL,DECLINING PRODUCTION,FORELAND,738.0,CRETACEOUS,SANDSTONE,3.3,3.6,23.0,210.0,834.8082595870206,0.24,,
VAREGAN,MEGION-VAREGAN (A5-B10),RUSSIA,FORMER SOVIET UNION,SIBERIAN WESTERN,COMPRESSION,62.6167,77.6622,NOYABRSKNEFTEGAS,ONSHORE,OIL,DECLINING PRODUCTION,INTRACRATONIC,1673.1,CRETACEOUS,SANDSTONE,945.0,128.7,23.6,187.0,815.5619596541786,0.3,,
VENTURE,MIC MAC-MISSISAUGA,CANADA,NORTH AMERICA,SCOTIAN,GRAVITY,44.0377,-59.5735,SABLE OFFSHORE ENERGY,OFFSHORE,GAS,DEVELOPING,PASSIVE MARGIN,4269.3,JURASSIC-CRETACEOUS,SANDSTONE,1574.7,150.0,14.0,30.0,766.9376693766937,,0.64,0.65
VERKHNECHONA,DANILOV (PREOBRAZHEN HZ),RUSSIA,FORMER SOVIET UNION,SIBERIAN EASTERN,INVERSION,60.8929,109.0385,VERKHNECHONSKNEFTEGAZ,ONSHORE,OIL,DEVELOPING,INVERSION,1515.6,PROTEROZOIC-CAMBRIAN,DOLOMITE,13.8,9.9,11.0,83.0,852.4096385542168,0.11,,
VERKHNECHONA,NEPA (VCH1-VCH2),RUSSIA,FORMER SOVIET UNION,SIBERIAN EASTERN,INVERSION,60.8929,109.0385,VERKHNECHONSKNEFTEGAZ,ONSHORE,OIL,DEVELOPING,INVERSION,1564.8,PROTEROZOIC,SANDSTONE,60.0,7.5,10.0,209.0,852.4096385542168,0.4,,
VERMEJO-MOORE HOOPER,FUSSELMAN-WINK,USA,NORTH AMERICA,PERMIAN,COMPRESSION,31.672,-103.532,FOREST OIL /ODESSA EXPLORATION,ONSHORE,GAS,NEARLY DEPLETED,FORELAND,5527.5,SILURIAN,DOLOMITE,38.1,10.2,5.0,5.0,,,,0.75
VESLEFRIKK,BRENT,NORWAY,EUROPE,NORTH SEA NORTHERN,EXTENSION,60.7984,2.9133,STATOILHYDRO,OFFSHORE,OIL,DECLINING PRODUCTION,RIFT,2534.1,JURASSIC,SANDSTONE,128.1,83.7,18.0,800.0,839.7626112759643,0.31,,
VESLEFRIKK,DUNLIN (INTRA DUNLIN SAND),NORWAY,EUROPE,NORTH SEA NORTHERN,,60.7984,2.9133,STATOILHYDRO,OFFSHORE,OIL,DECLINING PRODUCTION,RIFT,2799.9,JURASSIC,SANDSTONE,17.1,7.8,,200.0,829.9120234604105,0.34,,
VICTOR,LEMAN SANDSTONE,UK,EUROPE,NORTH SEA SOUTHERN,INVERSION,53.3299,2.3626,CONOCOPHILLIPS,OFFSHORE,GAS,DECLINING PRODUCTION,SUB-SALT,2452.5,PERMIAN,SANDSTONE,112.5,110.7,16.0,52.0,738.9033942558747,,,0.77
VICTORY,LANSING-KANSAS CITY,USA,NORTH AMERICA,ANADARKO,COMPRESSION,37.3971,-100.9544,BP,ONSHORE,OIL,MATURE PRODUCTION,FORELAND,1222.5,CARBONIFEROUS,LIMESTONE,45.0,3.0,22.0,85.0,829.9120234604105,,,
VILLEPERDUE,DALLE NACREE,FRANCE,EUROPE,PARIS,EXTENSION,48.8167,3.6,COPAREX /TRITON,ONSHORE,OIL,MATURE PRODUCTION,INTRACRATONIC,1797.0,JURASSIC,LIMESTONE,22.5,18.0,14.0,10.0,849.8498498498498,0.25,,
VIRDEN,LODGEPOLE,CANADA,NORTH AMERICA,WILLISTON,COMPRESSION,49.8698,-100.9538,NUMEROUS,ONSHORE,OIL,DECLINING PRODUCTION,INTRACRATONIC,574.5,CARBONIFEROUS,LIMESTONE,99.0,6.0,10.0,35.0,849.8498498498498,0.3,,
WAFRA,MINAGISH,NEUTRAL ZONE,MIDDLE EAST,THE GULF,COMPRESSION,28.6,47.8833,CHEVRON /KUWAIT OIL CO,ONSHORE,OIL,DECLINING PRODUCTION,FORELAND,1974.0,CRETACEOUS,LIMESTONE,195.0,60.0,21.5,100.0,907.0512820512821,,,
WANDOO,M. AUSTRALIS,AUSTRALIA,FAR EAST,CARNARVON,INVERSION,-20.1277,116.4203,EXXONMOBIL,OFFSHORE,OIL,DECLINING PRODUCTION,RIFT,497.1,CRETACEOUS,LOW-RESISTIVITY SANDSTONE,49.2,29.4,32.0,7500.0,940.1993355481728,0.44,,
WANGCHANG,QIANJIANG,CHINA,FAR EAST,JIANGHAN,EXTENSION,30.41,112.81,SINOPEC,ONSHORE,OIL,NEARLY DEPLETED,RIFT,726.3,PALEOGENE,SANDSTONE,1770.0,8.4,18.3,386.0,870.7692307692307,0.46,,
WANGZHUANG,TAISHAN,CHINA,FAR EAST,BOHAI,EXTENSION,37.7167,118.2833,SINOPEC,ONSHORE,OIL,NEARLY DEPLETED,RIFT,1448.7,ARCHEAN,BASEMENT,196.8,57.0,1.8,7.8,839.7626112759643,0.27,,
WAR-WINK SOUTH,BONE SPRING (3RD SANDSTONE),USA,NORTH AMERICA,PERMIAN,COMPRESSION,31.6533,-103.3046,KERR MCGEE AND OTHERS,ONSHORE,GAS-CONDENSATE,DECLINING PRODUCTION,FORELAND,3373.5,PERMIAN,SILTSTONE,25.2,7.8,10.0,0.5,808.1096516276414,,,
WATERTON,RUNDLE-WABAMUN (A POOL),CANADA,NORTH AMERICA,WESTERN CANADA,COMPRESSION,49.3077,-114.0869,SHELL,ONSHORE,GAS-CONDENSATE,MATURE PRODUCTION,SUB-THRUST,2430.0,DEVONIAN-CARBONIFEROUS,DOLOMITE,705.0,42.6,4.0,0.6,825.072886297376,,,0.85
WEEKS ISLAND,S SAND (RESERVOIR B) OR S RB,USA,NORTH AMERICA,GULF OF MEXICO NORTHERN ONSHORE,GRAVITY,29.8184,-91.778,SHELL AND OTHERS,ONSHORE,OIL,NEARLY DEPLETED,SALT,3480.0,NEOGENE,SANDSTONE,66.3,55.8,26.0,3500.0,870.7692307692307,0.86,,
WEIYUAN,DENGYING,CHINA,FAR EAST,SICHUAN,COMPRESSION,29.7333,104.75,PETROCHINA,ONSHORE,GAS,NEARLY DEPLETED,FORELAND,2845.5,PROTEROZOIC,DOLOMITE,639.9,27.6,1.8,0.2,,,,0.36
WELL DRAW,MESAVERDE (TEAPOT SAND),USA,NORTH AMERICA,POWDER RIVER,COMPRESSION,43.006,-105.1392,MATRIX PRODUCTION AND OTHERS,ONSHORE,OIL,MATURE PRODUCTION,FORELAND,1910.1,CRETACEOUS,SANDSTONE,33.0,5.1,14.0,4.3,815.5619596541786,,,
WEMBLEY,HALFWAY,CANADA,NORTH AMERICA,WESTERN CANADA,COMPRESSION,55.2197,-119.1749,BP AND OTHERS,ONSHORE,OIL,DECLINING PRODUCTION,FORELAND,1837.5,TRIASSIC,SANDSTONE,24.0,6.6,10.2,60.0,801.6997167138811,0.2,,
WENMINGZHAI,SHAHEJIE,CHINA,FAR EAST,BOHAI,EXTENSION,35.77,115.2,SINOPEC,ONSHORE,OIL,MATURE PRODUCTION,RIFT,1338.6,PALEOGENE,SANDSTONE,1968.6,45.9,25.0,420.0,898.4126984126984,0.37,,
WEST BRANCH,DUNDEE,USA,NORTH AMERICA,MICHIGAN,,44.262,-84.1784,MARATHON,ONSHORE,OIL,DECLINING PRODUCTION,INTRACRATONIC,777.0,DEVONIAN,LIMESTONE,54.0,8.4,,4.0,854.9848942598187,,,
WEST CHEYENNE,UPPER MORROW (PURYEAR),USA,NORTH AMERICA,ANADARKO,COMPRESSION,35.585,-99.7432,APACHE /BURLINGTON,ONSHORE,GAS,MATURE PRODUCTION,FORELAND,4350.0,CARBONIFEROUS,CONGLOMERATE,13.8,6.9,13.0,0.4,,,,0.85
WEST PEMBINA,NISKU (BIGORAY C POOL),CANADA,NORTH AMERICA,WESTERN CANADA,,53.2287,-115.8008,NUMEROUS,ONSHORE,OIL,UNKNOWN,FORELAND,2385.3,DEVONIAN,LIMESTONE,95.4,47.1,,278.0,860.1823708206687,0.46,,
WEST PEMBINA,NISKU (PEMBINA L POOL),CANADA,NORTH AMERICA,WESTERN CANADA,COMPRESSION,53.2287,-115.8008,NUMEROUS,ONSHORE,OIL,UNKNOWN,FORELAND,2791.8,DEVONIAN,DOLOMITE,69.9,50.1,11.8,1407.0,820.2898550724638,0.82,,
WEST SAK,WEST SAK,USA,NORTH AMERICA,NORTH SLOPE,,70.3401,-149.5375,CONOCOPHILLIPS,ONSHORE,OIL,DEVELOPING,FORELAND,600.0,CRETACEOUS,SANDSTONE,90.0,17.7,,140.0,959.3220338983051,,,
WEST SEMINOLE,SAN ANDRES,USA,NORTH AMERICA,PERMIAN,COMPRESSION,32.766,-102.811,OCCIDENTAL,ONSHORE,OIL,NEARLY DEPLETED,FORELAND,1443.0,PERMIAN,DOLOMITE,180.0,12.0,9.9,9.0,852.9234478601567,0.28,,
WEST TEBUK,F2-F0,RUSSIA,FORMER SOVIET UNION,TIMAN-PECHORA,COMPRESSION,63.6375,54.9269,KOMINEFT,ONSHORE,OIL,DECLINING PRODUCTION,INVERSION,1047.9,DEVONIAN,LIMESTONE,294.0,60.0,12.0,200.0,887.1473354231974,,,
WESTHOPE SOUTH,CHARLES,USA,NORTH AMERICA,WILLISTON,COMPRESSION,48.8521,-101.013,AMERADA HESS,ONSHORE,OIL,MATURE PRODUCTION,INTRACRATONIC,982.5,CARBONIFEROUS,DOLOMITIC LIMESTONE,12.9,4.6,10.0,2.6,842.2619047619047,0.15,,
WESTHOPE SOUTH,SPEARFISH,USA,NORTH AMERICA,WILLISTON,COMPRESSION,48.8521,-101.013,AMERADA HESS,ONSHORE,OIL,MATURE PRODUCTION,INTRACRATONIC,982.5,TRIASSIC,SANDSTONE,12.9,4.6,14.0,13.5,842.2619047619047,0.15,,
WEYBURN,CHARLES (MIDALE BEDS),CANADA,NORTH AMERICA,WILLISTON,COMPRESSION,49.5354,-103.7584,ENCANA,ONSHORE,OIL,SECOND PLATEAU PRODUTION,INTRACRATONIC,1290.0,CARBONIFEROUS,DOLOMITE,24.6,9.9,15.0,10.0,881.619937694704,0.39,,
WHITE ROSE,AVALON (SOUTH POOL),CANADA,NORTH AMERICA,JEANNE D ARC,EXTENSION,46.8638,-48.0664,HUSKY ENERGY,OFFSHORE,OIL,DEVELOPING,RIFT,2652.6,CRETACEOUS,SANDSTONE,295.2,98.4,15.0,127.0,876.1609907120743,0.32,,
WHITNEY CANYON-CARTER CREEK,MISSION CANYON,USA,NORTH AMERICA,FOSSIL,COMPRESSION,41.5135,-110.9286,CHEVRON /BP,ONSHORE,GAS-CONDENSATE,DECLINING PRODUCTION,SUB-THRUST,3990.0,CARBONIFEROUS,DOLOMITE,225.0,78.3,7.0,1.0,810.888252148997,,0.48,0.44
WILBURTON,ARBUCKLE,USA,NORTH AMERICA,ARKOMA,COMPRESSION,34.8366,-95.3885,BP,ONSHORE,GAS,MATURE PRODUCTION,THRUST,3858.0,CAMBRIAN-ORDOVICIAN,DOLOMITE,675.0,75.0,1.1,0.0,,,,
WOLONGHE,HUANGLONG,CHINA,FAR EAST,SICHUAN,COMPRESSION,30.176,107.2948,PETROCHINA,ONSHORE,GAS,DECLINING PRODUCTION,THRUST,3672.0,CARBONIFEROUS,DOLOMITE,29.4,9.9,6.0,0.2,,,,
WUBAITI,HUANGLONG,CHINA,FAR EAST,SICHUAN,COMPRESSION,31.1072,108.0421,PETROCHINA,ONSHORE,GAS,DEVELOPING,THRUST,4134.0,CARBONIFEROUS,DOLOMITE,29.4,23.7,6.0,0.8,,,,0.82
WYTCH FARM,SHERWOOD,UK,EUROPE,WESSEX,INVERSION,50.6672,-2.0278,BP,ONSHORE-OFFSHORE,OIL,DECLINING PRODUCTION,RIFT,1486.2,TRIASSIC,SANDSTONE,157.5,45.0,18.0,100.0,834.8082595870206,0.55,,
XIAOJI,KONGDIAN-1,CHINA,FAR EAST,BOHAI,EXTENSION,38.17,117.09,PETROCHINA,ONSHORE,OIL,DECLINING PRODUCTION,RIFT,2625.0,PALEOGENE,SANDSTONE,369.0,37.5,15.6,83.0,881.619937694704,0.32,,
XINGLONGTAI,SHAHEJIE (XINGLONGTAI),CHINA,FAR EAST,BOHAI,EXTENSION,41.15,122.05,PETROCHINA,ONSHORE,OIL,MATURE PRODUCTION,RIFT,1680.0,PALEOGENE,SANDSTONE,270.0,13.5,18.0,1800.0,857.0563294972744,0.36,,
YACHENG 13-1,LINGSHUI (LINGSHUI-3),CHINA,FAR EAST,QIONGDONGNAN,EXTENSION,17.5142,109.0088,CNOOC,OFFSHORE,GAS,PLATEAU PRODUCTION,RIFT,3381.0,PALEOGENE,SANDSTONE,205.8,92.4,12.7,281.0,825.072886297376,,,0.85
YAERXIA,BAIYANGHE (JIANQUANZI L SAND),CHINA,FAR EAST,JIUQUAN,,39.8015,97.4667,PETROCHINA,ONSHORE,OIL,DECLINING PRODUCTION,THRUST,2300.1,PALEOGENE,SANDSTONE,60.0,15.6,,353.0,860.1823708206687,,,
YAERXIA,XIAGOU,CHINA,FAR EAST,JIUQUAN,COMPRESSION,39.8015,97.4667,PETROCHINA,ONSHORE,OIL,DECLINING PRODUCTION,THRUST,3312.0,CRETACEOUS,SANDSTONE,186.0,34.5,8.5,2.4,865.4434250764525,,,
YAKELA,KAPSALIANG,CHINA,FAR EAST,TARIM,,41.5539,83.544,SINOPEC,ONSHORE,GAS-CONDENSATE,DEVELOPING,THRUST,5139.6,CRETACEOUS,SANDSTONE,48.3,24.6,,90.0,791.8298824846111,,0.4,0.6
YAKIN,BALIKPAPAN (YAKIN),INDONESIA,FAR EAST,KUTAI,INVERSION,-1.3522,116.8011,CHEVRON,OFFSHORE,OIL,DECLINING PRODUCTION,INVERSION,147.0,NEOGENE,SANDSTONE,1440.0,120.0,25.0,500.0,933.9933993399341,,,
YAMBURG,POKUR,RUSSIA,FORMER SOVIET UNION,SIBERIAN WESTERN,COMPRESSION,67.98,75.84,GAZPROM (YAMBURGGAZDOBYCHA),ONSHORE,GAS,PLATEAU PRODUCTION,INTRACRATONIC,984.0,CRETACEOUS,SANDSTONE,738.0,43.2,27.0,450.0,,,,0.85
YANGSANMU,GUANTAO-MINGHUAZHEN,CHINA,FAR EAST,BOHAI,EXTENSION,38.37,117.36,PETROCHINA,ONSHORE,OIL,MATURE PRODUCTION,RIFT,1169.4,NEOGENE,SANDSTONE,784.5,19.8,31.0,1475.0,959.3220338983051,0.29,,
YANLING,WUMISHAN,CHINA,FAR EAST,BOHAI,EXTENSION,38.7349,115.9453,PETROCHINA,ONSHORE,OIL,NEARLY DEPLETED,RIFT,2798.1,PROTEROZOIC,DOLOMITE,391.8,53.1,1.3,1.2,892.7444794952681,0.29,,
YAREGA,KOYVA,RUSSIA,FORMER SOVIET UNION,TIMAN-PECHORA,COMPRESSION,63.2992,53.6303,KOMINEFT,ONSHORE,OIL,PLATEAU PRODUCTION,INVERSION,144.0,DEVONIAN,SANDSTONE,30.0,16.8,21.0,1000.0,946.4882943143813,0.45,,
YATES,SAN ANDRES,USA,NORTH AMERICA,PERMIAN,COMPRESSION,31.0,-102.8333,KINDER MORGAN,ONSHORE,OIL,DECLINING PRODUCTION,FORELAND,1245.0,PERMIAN,DOLOMITE,67.5,60.0,17.5,62.0,876.1609907120743,,,
YIBAL,KHUFF,OMAN,MIDDLE EAST,FAHUD SALT,COMPRESSION,22.1333,56.0,PDO,ONSHORE,OIL,DECLINING PRODUCTION,SALT,2765.7,PERMIAN,DOLOMITE,201.0,75.0,15.0,5.0,820.2898550724638,0.16,,
YIBAL,SHUAIBA,OMAN,MIDDLE EAST,FAHUD SALT,COMPRESSION,22.1333,56.0,PDO,ONSHORE,OIL,DECLINING PRODUCTION,SALT,1332.0,CRETACEOUS,CHALK,105.0,90.0,28.0,5.0,825.072886297376,0.57,,
YIHEZHUANG,MAJIAGOU-BADOU,CHINA,FAR EAST,BOHAI,EXTENSION,37.9167,118.4333,SINOPEC,ONSHORE,OIL,NEARLY DEPLETED,RIFT,1791.0,ORDOVICIAN,DOLOMITE,168.0,24.6,2.5,8.4,876.1609907120743,0.32,,
YOUNG NORTH,BONE SPRING (2ND SANDSTONE),USA,NORTH AMERICA,PERMIAN,,32.767,-103.7601,NUMEROUS,ONSHORE,OIL,DECLINING PRODUCTION,FORELAND,2494.5,PERMIAN,SHALY SANDSTONE,42.0,10.5,,1.0,839.7626112759643,0.14,,
YOWLUMNE,STEVENS,USA,NORTH AMERICA,SAN JOAQUIN,COMPRESSION,35.0461,-119.1904,CASTLE PEAK RESOURCES,ONSHORE,OIL,NEARLY DEPLETED,WRENCH,3330.0,NEOGENE,THINLY-BEDDED SANDSTONE,60.0,45.0,20.0,75.0,865.4434250764525,0.4,,
ZAFIRO,AGBADA (QUA IBOE SANDS),EQUATORIAL GUINEA,AFRICA,NIGER DELTA,GRAVITY,3.8428,8.0797,EXXONMOBIL,OFFSHORE,OIL,DEVELOPING,DELTA,1320.0,NEOGENE,SANDSTONE,57.0,30.0,27.0,2000.0,849.8498498498498,0.5,,
ZAKUM,THAMAMA ZONE I,UAE,MIDDLE EAST,RUB AL KHALI,,24.8667,53.6833,ADMA /ZADCO,OFFSHORE,OIL,PLATEAU PRODUCTION,SALT,1926.0,CRETACEOUS,LIMESTONE,36.3,15.0,,1.5,860.1823708206687,0.32,,
ZAKUM,THAMAMA ZONE II,UAE,MIDDLE EAST,RUB AL KHALI,GRAVITY,24.8667,53.6833,ADMA /ZADCO,OFFSHORE,OIL,PLATEAU PRODUCTION,SALT,2082.0,CRETACEOUS,LIMESTONE,43.5,42.0,25.0,30.0,849.8498498498498,0.32,,
ZAKUM,THAMAMA ZONE III,UAE,MIDDLE EAST,RUB AL KHALI,GRAVITY,24.8667,53.6833,ADMA /ZADCO,OFFSHORE,OIL,PLATEAU PRODUCTION,SALT,2125.5,CRETACEOUS,LIMESTONE,161.1,33.0,23.0,15.0,844.776119402985,0.32,,
ZAKUM,THAMAMA ZONE IV,UAE,MIDDLE EAST,RUB AL KHALI,GRAVITY,24.8667,53.6833,ADMA /ZADCO,OFFSHORE,OIL,PLATEAU PRODUCTION,SALT,2355.0,CRETACEOUS,LIMESTONE,44.1,27.0,25.0,60.0,825.072886297376,0.35,,
ZAOYUAN,KONGDIAN-1 (ZAOBEI BLOCK),CHINA,FAR EAST,BOHAI,EXTENSION,38.21,117.06,PETROCHINA,ONSHORE,OIL,MATURE PRODUCTION,RIFT,1615.2,PALEOGENE,SANDSTONE,69.0,20.7,26.7,1872.0,921.8241042345277,0.12,,
ZAOYUAN,KONGDIAN-1 (ZAONAN BLOCK),CHINA,FAR EAST,BOHAI,,38.21,117.06,PETROCHINA,ONSHORE,OIL,PLATEAU PRODUCTION,RIFT,1663.5,PALEOGENE,SANDSTONE,206.7,57.6,,126.0,892.7444794952681,0.28,,
ZAOYUAN,KONGDIAN-1 (ZILAITUN BLOCK),CHINA,FAR EAST,BOHAI,EXTENSION,38.21,117.06,PETROCHINA,ONSHORE,OIL,DECLINING PRODUCTION,RIFT,1416.3,PALEOGENE,SANDSTONE,49.2,18.6,23.2,121.0,946.4882943143813,0.13,,
ZAOYUAN,KONGDIAN-2 (FENGHUADIAN BLOCK),CHINA,FAR EAST,BOHAI,,38.21,117.06,PETROCHINA,ONSHORE,OIL,PLATEAU PRODUCTION,RIFT,2273.7,PALEOGENE,SANDSTONE,88.5,23.7,,60.0,881.619937694704,0.19,,
ZAOYUAN,UNNAMED (FENGHUADIAN BLOCK),CHINA,FAR EAST,BOHAI,EXTENSION,38.21,117.06,PETROCHINA,ONSHORE,OIL,MATURE PRODUCTION,RIFT,2952.9,MESOZOIC,VOLCANICS,147.6,58.2,12.7,3.6,870.7692307692307,0.05,,
ZHIRNOV,MELEKESKIAN,RUSSIA,FORMER SOVIET UNION,VOLGA-URAL,COMPRESSION,51.0,44.8042,NIZHNEVOLZHSKNET,ONSHORE,OIL,DECLINING PRODUCTION,FORELAND,561.0,CARBONIFEROUS,SANDSTONE,78.6,9.9,24.0,30.0,887.1473354231974,0.24,,
ZHIRNOV,TULIAN B1,RUSSIA,FORMER SOVIET UNION,VOLGA-URAL,COMPRESSION,51.0,44.8042,NIZHNEVOLZHSKNET,ONSHORE,OIL,NEARLY DEPLETED,FORELAND,967.5,CARBONIFEROUS,SANDSTONE,38.4,13.2,26.0,1000.0,860.1823708206687,0.67,,
